Latitude;Longitude;Location;Club Name;Postal Address;Phone;Website
11.16;-4.330833;BOBO / Dioulasso;Aéroclub Michel Jacquot;BP 1499 Aéroport de Bobo-Dioulasso;26.20.97.10.01;
-12.806667;45.280556;DZAOUDZI / Pamanzi;Les Ailes Mahoraises;AEROPORT DE MAYOTTE BP158 97615 PAMANDZI / MAYOTTE;0639685595;https://sites.google.com/site/lesailesmahoraises/
-20.89;55.516389;LA REUNION-Roland Garros;Aéroclub Roland Garros;Zone d'Aviation Générale Route de Maperine 97438 SAINTE MARIE / LA RÉUNION;02.62.53.45.85;
14.743611;-17.479167;DAKAR-Léopold Sédar Senghor / Yoff;"Aéroclub de Dakar ""Iba Gueye""";Aéroport L.S Senghor BP 8120 CP 14523;22.18.20.04.12;
44.971111;1.257222;SAINT CREPIN Carlucet - Privé;Héliclub du Périgord;Aérodrome de Eyrissou 24590 ST CREPIN CARLUCET;05.53.29.35.33;http://heliclubperigord.com
48.312;-0.535;LA ROGERIE - Privé;Mayenne Air Loisirs;Aérodrome de La Rogerie La Rogerie;06.82.80.40.56;
46.4625;-1.238056;LUCON CHASNAIS - Privé;Aéroclub Luçon-Chasnais;3bis rue de L'Oulerie 85400 CHASNAIS;02 51 97 77 31;http://voureuils.jimdo.com/
49.8825;1.08527777777778;DIEPPE / St Aubin;Aéroclub Cdt Fayolle - Dieppe;Aérodrome de Dieppe 76550 OFFRANVILLE;02.35.84.86.55;http://www.aeroclubdieppe.fr/
49.4336111111111;2.80472222222222;COMPIEGNE / Margny;Aéroclub de Compiègne Margny;1427 Av Octave Butin 60280 MARGNY LES COMPIEGNE;03.44.83.32.12;http://www.accm60.com/
50.0691666666667;1.42666666666667;EU / Mers-Le-Tréport;Aéroclub d'EU le Tréport Mers;L'hermitage Route de St Valéry s/somme 76260 EU;02.35.86.56.34;http://aeroclubetm.e-monsite.com
49.5958333333333;3.63166666666667;LAON / Chambry;Aéroclub de Laon;Aérodrome de Laon Chambry Route de Crecy 02000 LAON;03.23.23.00.87;http://www.aeroclub-laon.com
49.8688888888889;3.02972222222222;PERONNE / St-Quentin;Aéroclub de Péronne;Aérodrome de Peronne Saint Quent Rue La Bosse de Laby 80200 ESTREES-MONS;03 22 85 67 80;http://www.acperonne.fr/
48.7105555555556;0.00388888888888889;ARGENTAN;Les Ailes Argentanaises;Hotel de ville 61200 ARGENTAN;02.33.36.78.11;http://www.aeroclub-argentan.fr/
51.0405555555556;2.55027777777778;DUNKERQUE / Les Moëres;Aéroclub de Dunkerque;Chemin des limites Les Moeres 59122 HONDSCHOOTE;03.28.26.88.40;http://www.aeroclub-dunkerque.com
47.6941666666667;0.00333333333333333;LA FLECHE / Thorée-Les-Pins;Aéroclub Paul Metairie;Aérodrome Route du Lude 72200 LA FLECHE;02.43.94.05.24;http://www.aeroclublafleche.fr
50.4238888888889;1.59333333333333;BERCK-SUR-MER;Aéroclub de Berck sur mer;Aérodrome de Berck D 940 62600 BERCK sur MER;;http://aeroberck.com
48.5455555555556;-0.383611111111111;BAGNOLE-DE-L'ORNE;Aéroclub d'Andaines;Aérodrome des Bruyères COUTERNE 61410 RIVES D'ANDAINES;02.33.37.91.84;http://www.aeroclubdandaines.com
49.4819444444444;4.36472222222222;RETHEL / Perthes;Aéroclub du Rethelois et Vouzinois;Hotel de Ville 08300 RETHEL;03.24.38.46.67;https://aeroclubderethel.wordpress.com
49.6730555555555;2.56916666666667;MONTDIDIER;Aéroclub de Montdidier;Hotel de Ville 80500 MONTDIDIER;06.86.57.86.74;http://www.lfar.fr
50.5147222222222;1.6275;LE TOUQUET Paris-Plage;Aéroclub du Touquet;Aérodrome Le Touquet 62520 LE TOUQUET;03.21.05.82.28;https://www.aeroclubtouquet.fr
50.3247222222222;3.46555555555556;VALENCIENNES / Denain;Aéroclub Valenciennes Hainaut;Aérodrome de Valenciennes Denain 59121 PROUVY;03.27.21.27.27;http://www.aeroclubvalenciennes.com/
49.4113888888889;5.89055555555556;VILLERUPT;Aéroclub Nord Lorraine;Club House de l'association 54190 VILLERUPT;06 43 18 16 89;http://aeroclubnordlorraine.over-blog.com/
48.5402777777778;0.533888888888889;MORTAGNE-au-Perche;Aéroclub de Mortagne au Perche;Aérodrome de Mortagne au Perche Fleuse 61400 MORTAGNE AU PERCHE;0768664365;www.aeroclub-mortagne-au-perche.fr
44.1747222222222;0.590555555555556;AGEN-La-Garenne;Aéroclub de l'Agenais;Aérodrome Agen la Garenne 47520 LE PASSAGE;05.53.96.36.67;http://www.aeroclub-agenais.fr
44.8286111111111;-0.715277777777778;BORDEAUX / Mérignac;CAPAM;Zone aviation Générale Aéroport Rue de Beaudesert;05.56.55.61.24;
44.8244444444444;0.520555555555556;BERGERAC / Roumanière;Aéroclub de Bergerac;Aérodrome de Roumanières 24100 BERGERAC;05.53.57.31.36;http://www.bergerac-aeroclub.com
45.6583333333333;-0.3175;COGNAC / ChateauBernard;Les Ailes Cognaçaises - Vol moteur;BP 30091 Route de Segonzac - Le parveau 16103 COGNAC Cedex;05.45.82.13.51;http://aeroclub.cognac.free.fr
45.9033333333333;0.92;SAINT-JUNIEN;Aéroclub de St Junien et sa Région;Aérodrome Maryse Bastié La croix Blanche 87200 SAINT JUNIEN;05.55.02.97.04;https://www.aeroclub-saint-junien.fr
46.3133333333333;-0.394444444444444;NIORT / Souché;Aéroclub des Deux Sèvres;Aérodrome Niort Marais Poitevin 578, avenue de Limoges 79000 NIORT;;http://aeroclubdesdeuxsevres.org/
43.635;1.36777777777778;TOULOUSE / Blagnac;Association Sportive & Culturelle - ASCAB;Hangar 19 - Aviation d'Affaire Imp Santos Dumont 31700 BLAGNAC;09.53.90.37.20;http://www.ascab-vm.fr
43.1855555555556;-0.00277777777777778;TARBES-LOURDES-PYRENÉES;Aéroclub Léon Morane;route de l’aéroport 65290 JUILLAN;05.62.32.90.36;http://ac-leonmorane.fr/
45.7294444444444;0.219166666666667;ANGOULÊME / Brie-Champniers;Aéroclub d'Angoulême;Aéroport Rue Jean Mermoz 16430 CHAMPNIERS;05.45.69.88.22;http://aeroclub-angouleme.fr/
45.1975;0.815277777777778;PÉRIGUEUX / Bassillac;Association Sportive Aéronautique de Périgueux;Aérodrome Périgueux Bassillac 24330 BASSILLAC;05.53.54.41.19;https://aeroclubperigueux.com/
46.7813888888889;0.551944444444444;CHATELLERAULT / Targé;Les Ailes Châtelleraudaises;Aérodrome de Chatellerault 86100 CHATELLERAULT;05.49.21.00.82;http://www.aileschat.org
44.3505555555556;1.47861111111111;CAHORS / Lalbenque;Aéroclub du Quercy Cahors;Aérodrome de Cahors Lalbenque 160 esplanade Thierry Lagane 46230 CIEURAC;06 08 54 12 03;http://www.ac-quercy.fr
46.1791666666667;1.95833333333333;GUERET / Saint-Laurent;Aéroclub de la Creuse;Aérodrome de Gueret St Laurent 23000 GUERET;05.55.52.26.07;http://www.aeroclub-gueret-saint-laurent.fr
44.6733333333333;1.78916666666667;FIGEAC / Livernon;Aéroclub de Figeac Livernon;Aérodrome Figeac Livernon 46320 DURBANS;05.65.40.57.04;https://aeroclubfigeaclivernon.fr
43.0088888888889;1.10444444444444;SAINT-GIRONS / Antichan;Aéroclub de l'Ariège;Aérodrome de St Girons BP 32 09200 ST GIRONS;05 61 66 11 00;http://www.aeroclub-ariege.fr/
45.4841666666667;-0.421388888888889;JONZAC / Neulles;Aéroclub de Jonzac en Haute Saintonge;Aérodrome de Jonzac;06 26 44 29 27;
43.9891666666667;3.18333333333333;MILLAU / Larzac;Aéroclub Millau-Larzac;Aérodrome de Millau Larzac 12230 LA CAVALERIE;05.65.62.72.91;http://aeroclub-millau.fr
43.7697222222222;-0.0327777777777778;NOGARO;Aéroclub du Bas Armagnac;Aérodrome 32110 NOGARO;05.62.08.80.82;http://www.aeronogaro.com
43.1647222222222;-0.560277777777778;OLORON / Herrère;Aéroclub d'Oloron Ste Marie;Route de l'Aérodrome 64680 HERRERE;06.03.21.86.71;
45.57;-0.515;PONS / Avy;Aéroclub de Pons;31 route de l'Aérodrome 17800 PONS;05.46.96.14.60;http://www.aeropons.fr/
43.77;2.00888888888889;GRAULHET / Montdragon;Aéroclub de Graulhet;L' Aérodrome 81300 GRAULHET;05.63.34.51.07;http://www.aeroclub-graulhet.com/new/
46.9619444444444;-0.152777777777778;THOUARS;Aéroclub Thouarsais;Route de l’aérodrome;05.17.32.11.29;
45.5369444444444;2.42555555555556;USSEL / Thalamy;Aéroclub d'Ussel;Aérodrome d'Ussel-Thalamy 19200 USSEL;05.55.72.18.57;https://www.aeroclub-ussel.fr
44.37;2.02805555555556;VILLEFRANCHE-de-Rouergue;Aéroclub du Rouergue;Aérodrome de Graves 12200 VILLEFRANCHE de ROUERGUE;05.65.45.05.27;http://www.aeroclub-du-rouergue.com/
44.4002777777778;0.761111111111111;VILLENEUVE-sur-Lot;Aéroclub de Villeneuve sur Lot - Rogé Air Club;Aérodrome de Rogé 47300 VILLENEUVE SUR LOT;05.53.70.43.07;http://www.aeroclub-villeneuve.com/
45.6311111111111;-0.975555555555556;ROYAN / Médis;Aéroclub de Royan Côte de Beauté;Aérodrome de Royan Médis 17600 MEDIS;05.46.06.86.00;http://www.aeroclub-royan.com
44.1469444444444;-1.16333333333333;MIMIZAN;Aéroclub de Mimizan;670 Allée Andrée Dupeyron 40200 MIMIZAN;0558091000;
43.7094444444445;-0.245277777777778;AIRE-SUR-L'ADOUR;Aéroclub d'Aire sur l'Adour;Aérodrome Route du Houga 40800 AIRE SUR L'ADOUR;0782773256;https://www.aeroclub-aire.fr/lfda/
44.0275;1.37833333333333;MONTAUBAN;Aéroclub Montalbanais;Aérodrome 82000 MONTAUBAN;05.63.66.47.44;https://www.aeroclub-montalbanais.fr
45.2744444444444;-0.452222222222222;MONTENDRE / Marcillac;Aéroclub Marcillac - Estuaire;Aérodrome Petit Gablezac 33860 MARCILLAC;05.57.32.40.50;http://acme-web.fr/
45.4213888888889;2.06888888888889;EGLETONS;Aéroclub Egletonnais;Mairie;05.55.93.09.50;
44.8536111111111;0.176666666666667;SAINTE-FOY-La-Grande;Cercle Aéronautique Foyen;Aérodrome Fougueyrolles 33220 SAINTE FOY LA GRANDE;06 75 39 40 74;https://www.aeroclubfoyen.fr
43.8838888888889;1.87555555555556;GAILLAC / Lisle-sur-Tarn;Aéroclub du Gaillacois;Aérodrome de Gaillac Longueville 81600 GAILLAC;05.63.57.98.52;http://aeroclubdugaillacois.fr/
43.6869444444444;0.6;AUCH / Lamothe;Aéroclub Gascon;Training Center Aéroport d'Auch-Gers 32000 AUCH;07.82.37.57.35;http://www.aeroclub-gers.com
44.985;-0.136111111111111;LIBOURNE / Artigues-de-Lussac;Libourne Aéroclub;125 Av Georges Pompidou 33500 LIBOURNE;05.57.24.31.50;http://www.libourne-aeroclub.com
43.0905555555556;1.69583333333333;PAMIERS / les Pujols;Aéroclub de Pamiers les Pujols;Aérodrome des Pujols Plateau de Millet 09100 PAMIERS;05.61.68.60.60;http://acb.pamiers.pagesperso-orange.fr/
47.0372222222222;0.101388888888889;LOUDUN;Aéroclub Loudunais;Aérodrome de Véniers »bellevue » 86200 LOUDUN;07 66 57 42 61;http://www.aeroclubloudun.fr/
44.5011111111111;0.1975;MARMANDE / Virazeil;Aéroclub de Gascogne;Aérodrome 47200 MARMANDE;05.53.64.26.36;http://www.acg-lfdm.com
45.9591666666667;-1.31611111111111;SAINT PIERRE-d'Oléron;Les Ailes Oléronaises;Aérodrome de Bois Fleury 17310 ST PIERRE D'OLERON;05.46.47.02.31;https://www.ailesoleronaises.com/
43.2794444444444;0.521666666666667;CASTELNAU / Magnoac;Aéroclub de Castelnau Magnoac;Aérodrome 65230 CASTELNAU MAGNOAC;05 62 39 81 18;http://perso.infonie.fr/magnoac
44.7933333333333;1.24472222222222;SARLAT / Domme;Aéroclub du Sarladais;327 Route de l'aérodrome 24250 DOMME;09.62.10.09.18;http://www.aeroclubdusarladais.fr
43.2161111111111;0.0786111111111111;TARBES / Laloubère;Aéroclub de Bigorre;Aérodrome 65310 LALOUBERE;05.62.93.22.16;http://www.aerobigorre.org
45.1977777777778;-0.882222222222222;LESPARRE / Saint-Laurent-Médoc;Aéroclub du Médoc;4 route de Semignan 33112 ST LAURENT MEDOC;05.56.59.42.25;https://www.aeroclubmedoc.fr/
46.2727777777778;0.190555555555556;COUHE / Vérac;Aéroclub Couhé-Brux et du Civraisien;Mairie de Couhé 86700 VALENCE EN POITOU;05.49.37.97.98;http://www.lfdv.blogspot.com
46.5836111111111;0.6425;CHAUVIGNY;Aéroclub de Chauvigny;Hotel de Ville 86300 CHAUVIGNY;05.49.46.31.48;http://aeroclub-de-chauvigny.com
44.4636111111111;1.00777777777778;FUMEL / Montayral;Aéroclub de la Vallée du Lot;Aérodrome de Fumel-Montayral Nougaillou 47500 MONTARAYAL;05.53.40.83.42;https://www.aeroclubfumelmontayral.com
44.8772222222222;-0.479166666666667;BORDEAUX / Yvrac;Bordeaux Yvrac Aéroclub;3 chemin de Mirefleur 33370 YVRAC;05.56.06.68.14;http://www.byac.org
47.3266666666667;-3.19833333333333;BELLE-ILE;Aéroclub de Belle Ile en Mer;Aérodrome 56360 BANGOR;02.97.31.53.19;http://www.acbelleile.com/
48.4444444444444;-2.10138888888889;DINAN / Trélivan;Aéroclub de Dinan;Mairie 22100 DINAN;02.96.39.00.25;http://aeroclub.dinan.free.fr
48.0577777777778;-2.9225;PONTIVY;Aéroclub Pontivy Centre Bretagne;Aérodrome Kernivinen 56920 NOYAL PONTIVY;02.97.25.57.79;http://www.aeroclub-pontivy.fr/
47.3413888888889;0.9425;AMBOISE / Dierre;Les Ailes Tourangelles;Aérodrome de Dierre 37150 DIERRE;07.83.62.24.02;http://www.ailestourangelles.fr
47.4805555555556;2.39416666666667;AUBIGNY sur-Nère;Aéroclub d'Aubigny;Aérodrome de la Théau route de Ménétéol 18700 AUBIGNY SUR NERE;02.48.58.04.72;https://www.aeroclub-aubigny.fr/
47.6144444444444;2.78194444444444;BRIARE / Châtillon;Aéroclub du Giennois;Aérodrome Briare Chatillon 45250 BRIARE;02.38.31.18.70;https://www.aeroclub-giennois.fr/
46.8419444444444;1.62111111111111;CHATEAUROUX / Villers;Aéroclub de Châteauroux;Aérodrome Châteauroux Villers 36250 SAINT MAUR;07.81.39.11.43;https://www.aeroclub-chateauroux.fr/
46.62;1.08583333333333;LE BLANC;Aéroclub du Blanc;Aérodrome du BLANC 36300 LE BLANC;02.54.37.09.18;http://www.aeroclubdublanc.org
47.9605555555556;2.68583333333333;MONTARGIS / Vimory;Aéroclub du Gatinais;11, rue de l’Aérodrome 45700 VIMORY;02.38.85.03.90;http://ac-gatinais.com
47.2666666666667;0.699444444444444;TOURS / Sorigny;Aéroclub de Touraine;Aérodrome de Tours-Sorigny 37250 SORIGNY;02.47.26.01.14;http://www.aeroclubdetouraine.com
47.2213888888889;4.56111111111111;POUILLY / Maconge;Les Ailes de Pouilly Maconge;Aérodrome de Pouilly Maconge 21320 MEILLY SUR ROUVRES;;
47.4822222222222;-3.1;QUIBERON;Quiberon Air Club;rue de l'aérodrome 56170 QUIBERON;02.97.50.11.05;http://www.quiberonairclub.com
47.6994444444444;-2.03666666666667;REDON / Bains-Sur-Oust;Aéroclub Redonnais;Aérodrome 35600 BAINS SUR OUST;02.99.71.00.59;http://www.acredon.fr
48.0547222222222;-3.66277777777778;GUISCRIFF / Scaër;Les Ailes Armoricaines;Aérodrome Bretagne Atlantique 56560 GUISCRIFF;02.97.34.09.80;http://www.ailesarmoricaines.com/
48.8683333333333;5.18583333333333;BAR-LE-DUC;Aéroclub du Sud-Meusien;BP 10184 55005 BAR LE DUC CEDEX;03.29.77.18.30;http://www.aeroclub-sudmeusien.fr
47.2394444444444;4.26583333333333;SAULIEU / Liernais;Aéroclub Saulieu Liernais;la justice 21210 saint martin de la mer;03.80.64.30.32;http://aeroclubsaulieu.free.fr
46.7186111111111;-2.39111111111111;ILE-D'YEU / Le Grand Phare;Aéroclub de l'Ile d'Yeu;Mairie 85350 L'ILE D'YEU;02.51.58.56.00;https://www.aeroclubiledyeu.fr/
49.0463888888889;2.35305555555556;ENGHIEN / Moisselles;Les Ailerons d'Enghien - Moisselles;Aérodrome Rue du Moutier 95570 MOISSELLES;01.39.91.05.60;http://www.lesailerons.fr
47.4080555555556;-1.1775;ANCENIS;Aéroclub du Pays d'Ancenis;Aéropole 60 place hélène Boucher 44150 ANCENIS;02.40.83.28.14;https://aeroclub-ancenis.fr/
46.4413888888889;-0.792777777777778;FONTENAY-LE-COMTE;Aéroclub de Fontenay le Comte;Route de Maillezais Aérodrome 85200 FONTENAY LE COMTE;06.52.52.06.47;https://www.aeroclubflc.com/
47.6566666666667;1.98916666666667;LAMOTTE-BEUVRON;Aéroclub des Bruyères;Aérodrome du Rabot;02.54.88.01.58;
48.4308333333333;4.4825;BRIENNE-LE-CHATEAU;Association Aéronautique Briennoise;Aérodrome Brienne Le Château ZI St Christophe;06.14.67.60.50;
46.89;-2.087;BEAUVOIR - Fromentine;Aéroclub Beauvoir-Fromentine;Aérodrome de Beauvoir-Fromentine Route départementale 22 85230 BEAUVOIR SUR MER;06 22 43 38 51;https://aeroclub-beauvoir.fr/
48.1572222222222;2.1925;PITHIVIERS;Aéroclub du Pithiverais;Lot Petit Bon dieu Rue Guigne soleil BP 314 45300 PITHIVIERS;02.38.30.08.27;http://www.ac-ptv.org
48.4977777777778;2.34333333333333;LA FERTÉ-ALAIS;Amicale J.B. Salis;Aérodrome de Cerny 91590 LA FERTE ALAIS;01.64.57.55.85;http://www.ajbs.fr
48.0669444444444;4.41361111111111;BAR-SUR-SEINE / Celles sur Ource;Aéroclub de la Côte des Bars;Chez Mr TABOURIN Arnaud 3 rue du Sénateur Lesaché 10340 LES RICEYS;06.08.47.65.60;www.aeroclub-cotedesbar.fr
46.8711111111111;2.37694444444444;CHATEAUNEUF-SUR-CHER;Union Aérienne de Châteauneuf sur Cher;Hotel de Ville 18190 CHATEAUNEUF SUR CHER;02.36.24.56.30;http://aeroclubchateauneuf.fr
47.1947222222222;2.06666666666667;VIERZON / Méreau;Les Ailes Vierzonnaises;Aérodrome Vierzon Mereau Chemin des Crêles 18120 MEREAU;02.48.75.12.87;http://www.ailesvierzonnaises.fr/
46.5627777777778;4.97666666666667;TOURNUS / Cuisery;Aéroclub du Val de Saône;Aérodrome de tournus- cuisery 590, chemin de l'Aérodrome 71290 L' ABERGEMENT-DE-CUISERY;03.58.19.44.31;http://www.acvs71.fr/
49.3061111111111;1.63861111111111;ETREPAGNY;Aéroclub du Vexin;Mairie 27150 ETREPAGNY;02.32.55.73.29;http://aeroclubduvexin.com
48.7105555555556;3.76416666666667;SÉZANNE / Saint-Rémy;Aéroclub Sezannais;Aérodrome;03.26.80.66.40;
47.5030555555556;3.89944444444444;AVALLON;Aéroclub de l'Avallonnais;Aérodrome Route d'Annéot 89200 AVALLON;03.86.34.15.11;http://aeroclub-avallon.fr/
47.0111111111111;4.8975;BEAUNE / Challanges;Aéroclub Beaunois;Aérodrome Route de Seurre 21200 BEAUNE;03.80.22.21.93;http://www.aeroclub-beaunois.fr
47.7022222222222;6.8325;BELFORT / Chaux;Association Belfortaine de Vol Moteur;52 Grande Rue 90300 SERMAMAGNY;07 44 80 05 28;http://abvm90.free.fr
47.3605555555556;2.91944444444444;COSNE-SUR-LOIRE;Aéroclub de Cosne / Loire;Aérodrome RN 7 58200 COSNE SUR LOIRE;03.86.28.19.64;http://www.aeroclubcosne.fr
47.3869444444444;4.94805555555556;DIJON / Darois;Aéroclub de la Côte d'Or;Aérodrome de Dijon Darois 2 route de Troyes 21121 DAROIS;03.80.35.61.09;http://www.aeroclub-cotedor.fr
47.0427777777778;5.435;DÔLE / Tavaux;Aéroclub de Franche-Comté;Aérodrome 15 route de Dole 39500 TAVAUX;03.84.81.18.17;http://www.ac-fc.org
47.995;3.39194444444444;JOIGNY;Les Ailes Joviniennes;Aérodrome de Joigny Route de Dixmont B. P. 34 89301 JOIGNY CEDEX;03.86.62.11.82;http://www.lesailesjoviniennes.fr/
46.6761111111111;5.47111111111111;LONS-LE-SAULNIER / Courlaoux;Aéroclub de Lons le Saunier;Aérodrome de Courlaoux 39570 COURLAOUX;03.84.24.71.81;http://www.aeroclub-lonslesaunier.com
46.6041666666667;4.33388888888889;MONTCEAU-LES-MINES / Pouilloux;Aéroclub du Bassin Minier;Hotel de Ville 71300 MONTCEAU LES MINES;03.85.79.10.83;https://www.aeroclub-montceau-creusot.fr/
46.4677777777778;4.135;PARAY LE-MONIAL;Aéroclub Charolais;Aérodrome de la forêt 71600 PARAY LE MONIAL;03.85.81.51.51;http://aerodrome-paray.fr
48.2905555555556;3.25083333333333;PONT-SUR-YONNE;Aéroclub de Sens;Aérodrome de Gisy Les Nobles 3 rue de l'aérodrome 89140 GISY LES NOBLES;03.86.67.04.73;http://www.aeroclubdesens.com/
47.9822222222222;3.77833333333333;SAINT-FLORENTIN / Cheu;Les Ailes Florentinoises;Aérodrome de ST FLORENTIN - Cheu;03.86.35.06.08;
47.4819444444444;4.34416666666667;SEMUR-EN-AUXOIS;Aéroclub de Semur en Auxois;avenue Jean Mermoz;03.80.97.12.04;
49.4844444444444;5.57277777777778;LONGUYON / Villette;Aéroclub Frontieres Lorraines;Aérodrome Longuyon Villette 54260 LONGUYON;03.82.39.40.31;http://www.acfl54.com/
48.7188888888889;7.07944444444444;SARREBOURG / Buhl;Aéroclub Région de Sarrebourg;Aerodrome Intercommunal 5 allée Henri METZ 57400 BUHL;03.87.07.10.27;https://aeroclub-sarrebourg.fr
49.1280555555556;7.10833333333333;SARREGUEMINES / Neunkirch;Espoir Aéronautique de Sarreguemines;Aérodrome de Sarreguemines Route de Deux-Ponts BP 80315 57203 SARREGUEMINES Cedex;03.87.95.33.50;http://www.lfgu.fr
49.1222222222222;5.47083333333333;VERDUN / Le Rozelier;Aéroclub Robert Thiery;Aérodrome du Rozelier 55100 VERDUN;09 52 40 10 78;http://acrt.free.fr
46.7644444444444;5.82083333333333;CHAMPAGNOLE / Crotenay;Aéroclub de Champagnole Crotenay;1 rue de l'Aérodrome 39300 CROTENAY;03.84.51.25.80;http://acchampagnole.wordpress.com/
48.2672222222222;7.00861111111111;SAINT DIÉ / Rémomeix;Aéroclub de Saint Dié-Remomeix;Aéroclub de Saint Dié-Rémome 5 route de l'aérodrome 88100 REMOMEIX;03.29.56.24.62;http://www.acsaintdie.com/
47.1430555555556;4.96916666666667;NUITS-SAINT-GEORGES;Aéroclub de Nuits St Georges;Route de Boncourt 21700 NUITS ST GEORGES;03.80.61.05.16;http://www.lfgz.fr/
45.515;3.2675;ISSOIRE / Le Broc;Aéroclub Pierre Herbaud;Aérodrome d'Issoire 33 route de l'aérodrome 63500 ISSOIRE;04.73.89.16.62;http://www.aeroclub-issoire.fr/
45.8697222222222;5.18722222222222;PEROUGES / Meximieux;"Aéroclub de Perouges Plaine de l'Ain ""Robert et He";194 chemin de l’aérodrome 01800 PEROUGES;06 29 50 83 55;http://aeroclub-perouges.e-monsite.com/
44.3988888888889;4.71805555555556;PIERRELATTE;Les Ailes Tricastines;505 Chemin du Bisolet;04 75 04 01 49;
45.0661111111111;5.10333333333333;ROMANS / Saint-Paul;Aéroclub de Romans;Aérodrome des chasses 26100 ROMANS;04.75.70.06.76;http://www.aeroclub-romans.fr/
44.4452777777778;4.33388888888889;RUOMS;Aéroclub de l'Ardèche;560 chemin de Flojas 07120 LABEAUME;04.75.39.62.57;http://www.aeroclubdelardeche.com/
45.4930555555556;4.53555555555556;SAINT CHAMOND / L'Horme;Aéroclub de St Chamond et de la Vallée du Gier;Route de Planèze - BP 60 42152 L'HORME;04.77.22.03.45;http://aero.st.chamond.free.fr
45.4641666666667;4.82944444444444;VIENNE / Reventin;Pôle Aéronautique Vienne Reventin - AVR;chez M. GONZALES 16 chemin Saint Gervais;0608015675;
45.6877777777778;5.45361111111111;MORESTEL;Aéroclub de Morestel;Chemin de l'aérodrome 38510 ARANDON-PASSINS;04.74.80.09.57;http://www.aeromorestel.com
44.7063888888889;3.88833333333333;LANGOGNE / Lespéron;Aéroclub Gilbert Tremolet;Hôtel de Ville 48300 LANGOGNE;04.66.69.00.90;http://www.aeroclub-langogne.com/
45.8208333333333;6.65222222222222;MEGEVE;Aéroclub de Megève;3368 route de la côte 2000;04 50 21 33 67;
46.1241666666667;5.80611111111111;BELLEGARDE / Nouvray;Aéroclub de Bellegarde;Club House Av de St Exupéry 01200 BELLEGARDE VALSERINE;04.50.48.06.54;http://www.aeroclub-bellegarde.fr
45.0797222222222;3.76333333333333;LE PUY / Loudès;Aéroclub du Puy;Aérodrome de Loudes 10 rue des Ailes Volantes 43320 CHASPUZAC;04.71.08.60.59;http://www.aeroclubdupuy.com
45.325;3.35916666666667;BRIOUDE / Beaumont;Aéroclub de Brioude;Aérodrome de Brioude Beaumont Chomaget 43100 BEAUMONT;04.71.50.13.53;http://www.aeroclub-brioude.fr
46.2055555555556;5.29166666666667;BOURG / Ceyzeriat;Aéroclub de Bourg en Bresse;"Aérodrome Bourg Ceyzeriat Terre des Hommes ""Teyssonge"" 01250 JASSERON";04.74.24.65.09;http://www.aeroclub-bourg-en-bresse.com/
45.5169444444444;3.74638888888889;AMBERT / Le Poyet;Aéroclub du Livradois-Forez;2553 route de l’aérodrome 63600 AMBERT;04.73.82.01.64;http://aeroclub-ambert.fr
45.92;4.635;VILLEFRANCHE / Tarare;Aéroclub du Beaujolais;Aérodrome de Villefranche Tarare 69620 FRONTENAS;04.74.71.66.44;http://www.aeroclub-beaujolais.fr
46.2538888888889;3.58861111111111;LAPALISSE / Périgny;Aéroclub du Pays de Lapalisse;Aérodrome de Lapalisse/Périgny 75 route de Lapalisse 03120 PERIGNY;0463884397;http://acpla.fr
46.5344444444444;3.42166666666667;MOULINS / Montbeugny;Aéroclub de Moulins;Aérodrome Moulins Montbeugny 03400 TOULON sur ALLIER;04.70.20.04.56;http://aeroclub.moulins.free.fr
44.7825;0.958888888888889;BELVES / Saint-Pardoux;Aéroclub de Belvès Périgord;Aérodrome de St Pardoux 24170 BELVES;05.53.29.01.50;http://www.aeroclub-belves.fr
44.1794444444444;2.51861111111111;CASSAGNES / Beghonès;Aéroclub du Ségala;Aérodrome du Caucart 12120 CASSAGNES BEGONHES;05.65.46.75.26;http://aeroclub-cassagnes.fr/
45.2680555555556;0.0169444444444444;CHALAIS;Aéroclub les Ailes Chalaisiennes;13 route de Rioux Martin 16210 CHALAIS;05.45.98.28.34;www.les-ailes-chalaisiennes.com
43.9158333333333;-0.949166666666667;RION-DES-LANDES;Aéroclub Jean Causseque;Aérodrome 40370 RION-DES-LANDES;05.58.57.11.61;https://sites.google.com/site/aeroclubjcausseque/home
43.1086111111111;0.620277777777778;SAINT-GAUDENS / Montréjeau;Aéroclub du Comminges;Mairie 31800 SAINT GAUDENS;05.61.89.13.08;http://accomminges.fr:99/aeroclub/
42.7969444444444;0.435555555555556;PEYRESOURDE-BALESTAS;Peyragudes Air Club;Altiport de Peyresourde Balestas 65240 LOUDERVIELLE;06.61.62.24.69;http://www.peyragudes-air-club.fr/
43.4813888888889;1.98;REVEL / Montgey;Aéroclub de Revel;Aérodrome 31250 REVEL;05.61.83.53.73;http://acrevel.fr
50.8825133;1.7314873;SAINT INGLEVERT / Les deux Cap;Aéroclub du Boulonnais;49 route du Camp d'Aviation 62250 SAINT INGLEVERT;03.21.33.74.91;http://www.aeroclub-boulonnais.fr
45.3805555555556;-1.11583333333333;VENDAYS-MONTALIVET;Aéroclub de Montalivet;Route de Montalivet Aérodrome Municipal 33930 VENDAYS MONTALIVET;05 56 09 30 48;http://aeromonta.pagesperso-orange.fr
45.9663888888889;-0.525277777777778;SAINT-JEAN-D'ANGÉLY;Aéroclub Angérien;28 Les grandes béguines 17400 ST JEAN D'ANGELY;05 16 51 23 62;https://aeroclub-angerien.jimdo.com/
48.0916666666667;5.05;CHAUMONT / Semoutiers;Aéroclub de la Haute Marne;Aérodrome de Chaumont Sémoutiers BP 203 52000 CHAUMONT;03 25 03 05 92;http://www.aeroclub-hautemarne.com/
46.9038888888889;-0.696388888888889;MAULEON;Aéroclub du Bocage;Aérodrome Mauléon Bocage 79700 RORTHAIS;05.49.81.85.54;http://www.aeroclubdubocage79.fr/
46.0397222222222;5.49694444444444;ALTIPORT DE CORLIER;Aéroclub du Haut Bugey;Altiport 01110 CORLIER;04.74.38.55.85;http://altiportdecorlier.free.fr
43.2022222222222;1.05111111111111;CAZERES / Palaminy;Aéroclub Palaminy Cazères;Aérodrome de Palaminy/Cazères Route de Martres-Tolosane;05.61.90.12.45;
45.8233333333333;-1.07888888888889;MARENNES;Aéroclub Albert Baron;Le Bournet St Just 17320 MARENNES;07.82.86.40.70;http://aeroclub-marennes.wix.com/albert-baron#!
49.345;3.28305555555556;SOISSONS / Courmelles;Les Ailes Soissonnaises;Aérodrome de Soissons 02200 COURMELLES;03.23.74.85.00;http://www.ailes-soiss.fr/
49.025538;5.876166;CHAMBLEY / Bussières;Les Ailes Mosellanes;Chambley Planet' Air - hangar D 7 Bd Antoine de St-Exupéry 54470 HAGEVILLE;09 60 39 84 23;http://www.lesailesmosellanes.com
45.6272222222222;6.32972222222222;ALBERTVILLE;Aéroclub d'Albertville;Aérodrome Albertville Tournon 73200 ALBERTVILLE;04.79.38.48.03;http://www.acalbertville.com/
42.5202777777778;8.79305555555556;CALVI / Sainte-Catherine;Aéroclub Calvi Balagne;Aérodrome Sainte Catherine Route de l'aéroport;04.95.65.02.97;
45.0277777777778;5.31;SAINT JEAN-EN-ROYANS;Aéroclub du Royans Vercors;470 route du Tram 26190 ST JEAN EN ROYANS;04.75.48.61.29;http://www.acrv.org
41.5022222222222;9.09666666666667;FIGARI / Sud-Corse;Aéroclub de Figari Sud Corse;Aéroport de Figari 20114 FIGARI;04 95 70 41 13;http://aeroclubsudcorse.free.fr
42.055;9.40194444444444;GHISONACCIA / Alzitone;Aéroclub de Ghisonaccia - Alzitone;Entreprise MT.TP Route de Ghisoni 20240 GHISONACCIA;04.95.56.17.50;https://www.aeroclubdeghisonaccia.com/page/1440535-presentation
41.9238888888889;8.8025;AJACCIO / Campo Dell'Oro;Aéroclub de la Corse;Aéroport Ajaccio Campo dell'Oro 20090 AJACCIO;04.95.22.35.00;http://www.aeroclubdelacorse.fr/
45.7116666666667;4.69777777777778;LYON / Brindas;Aéroclub de l'Ouest Lyonnais;Mairie 69126 BRINDAS;04.78.45.11.40;http://acol-brindas.com/
41.6613888888889;8.895;PROPRIANO;Aéroclub du Valinco;Aérodrome de Tavaria 20110 PROPRIANO;;
45.375;6.277778;SAINT REMY DE MAURIENNE;Les Ailes de Maurienne;Aérodrome le Canada 73660 SAINT REMY DE MAURIENNE;09 62 15 07 00;www.lesailesdemaurienne.com
42.2908333333333;9.19388888888889;CORTE;Aéroclub de Corté Centre Corse;RN 200 20250 CORTE;04.95.46.21.00;http://www.aeroclub-corte.org/
45.4069444444444;6.58055555555556;MERIBEL;Aéroclub de Méribel;Altiport 73550 MERIBEL;04 79 08 61 33;www.ac-meribel.com
45.695;5.69277777777778;BELLEY / Peyrieu;Aéroclub de Belley-Peyrieu;Aérodrome Le Grand Camp 01300 PEYRIEU;04.79.42.00.19;http://www.aeroclub-belleypeyrieu.com
47.8463888888889;3.49666666666667;AUXERRE / Branches;Aéroclub de l'Yonne;Aérodrome d'Auxerre-Branches;03.86.48.31.95;
45.6391666666667;5.88;CHAMBÉRY / Aix-Les-Bains;Aéroclub de Savoie;Aéroport de Chambéry-Aix 73420 VIVIERS DU LAC;04.79.54.41.81;http://www.aeroclub-savoie.com
47.0644444444444;2.37888888888889;BOURGES;Aéroclub Vol Moteur de Bourges;10 rue le Brix Rond Point Guynemer;02.48.50.41.83;
46.1919444444444;6.26944444444444;ANNEMASSE;Club Aéronautique d'Annemasse;98 Route de Thonon 74100 ANNEMASSE;04.50.37.12.75;http://www.caa.asso.fr
46.2791666666667;5.6675;OYONNAX / Arbent;Aéroclub Jean Coutty;Aérodrome 01100 OYONNAX;04.74.77.21.00;http://aeroyonnax.com/
46.2958333333333;4.79583333333333;MACON / Charnay;Aéroclub du Maconnais Louis Berrard;Hôtel de Ville 71000 MACON;03.85.34.18.54;www.aeroclubmacon.org
46.4063888888889;4.02111111111111;SAINT-YAN;Aéroclub Louis Notteghem St Yan;Aérodrome 71600 SAINT YAN;03 85 84 94 37;http://www.aeroclub-styan.fr/
46.3536111111111;2.57222222222222;MONTLUÇON / Domérat;Aeroclub de Montluçon-Domérat;Aérodrome Montlucon Domerat Allée Léon Biancotto 03410 DOMERAT;04.70.29.18.99;http://www.aeroclub-montlucon.fr
44.9155555555556;4.96861111111111;VALENCE / Chabeuil;Aéroclub de Valence;Aéroport Valence Chabeuil 26120 CHABEUIL;04.75.85.29.12;http://www.aeroclub-valence.com
46.1716666666667;3.40416666666667;VICHY / Charmeil;Aéroclub de Vichy;Aéroport Vichy Charmeil Cedex 449;04.70.59.88.28;
44.8975;2.41666666666667;AURILLAC;Aéroclub du Cantal;Aérodrome de Tronquières 15000 AURILLAC;04.71.64.22.00;http://www.aeroclub-cantal.com
45.7036111111111;4.20111111111111;FEURS / Chambéon;Air Club du Forez;6 Ch du Camp d'Aviation Chambéon 42110 CHAMBEON;04.77.27.81.25;http://www.air-club-forez.org/
45.5341666666667;4.29722222222222;SAINT ETIENNE / Bouthéon;Les Ailes Foréziennes;Aérodrome de St-Etienne 42160 ANDREZIEUX BOUTHEON;04.77.36.56.09;http://www.lesailesforeziennes.fr
43.2158333333333;2.30861111111111;CARCASSONNE / Salvaza;Aéroclub de Pilotes Audois;Aéorport de Carcassonne Salvaza Hangar n°1 11000 CARCASSONNE;04.68.71.38.78;http://apa11.net/club/
43.4366666666667;5.215;MARSEILLE-PROVENCE;Aéroclub Marseille Provence;Aéroport Marseille Provence 3 Pôle Aviation Générale 13700 MARIGNANE;07 66 87 24 95;https://aroclubmarseilleprovence.fr/
43.2522222222222;5.78611111111111;LE CASTELLET;Amicale des Aviateurs Varois;3100 Route des Hauts du Camp 83330 LE CASTELET;0613443792;http://www.aeroclubcuers.fr/
44.0727777777778;4.14305555555556;ALES / Déaux;Aéroclub d'Ales et des Cévennes;Aérodrome 30360 DEAUX;04.66.83.56.18;http://aeroclub-ales-deaux.com
44.06;5.99138888888889;CHATEAU-ARNOUX / Saint-Auban;Aéroclub de Haute Provence;Aérodrome de St Auban;04.92.62.66.09;
44.5041666666667;3.5275;MENDE / Brénoux;Aéroclub de la Lozère;Aérodrome Mende Brenoux BP 117 48003 MENDE;04.66.65.39.50;http://www.aeroclub-lozere.com
44.7016666666667;6.60027777777778;MONTDAUPHIN / Saint-Crépin;Aéroclub des Quatre Vallées;Aérodrome 05600 SAINT CREPIN;04.92.45.02.95;http://planeur.stcrepin.free.fr
43.6102777777778;4.07027777777778;MONTPELLIER / Candillargues;Aéroclub de Camargue;Aérodrome Montpellier l'Or 34130 CANDILLARGUES;04.67.29.57.60;
44.0861111111111;4.39444444444444;UZES;Aéroclub d'Uzes;Aérodrome de Uzés Camp Roux 30700 UZES;07 83 03 84 96;https://aeroclub-uzes.eu
44.3369444444444;4.90805555555556;VALREAS / Visan;Aéroclub du Haut Comtat et de la Région;1253 Chemin des Abeillers Aériddrile de Valréas-Visan 84820 VISAN;04.90.41.91.71;https://www.achc.fr
42.9113888888889;2.05611111111111;PUIVERT;Les Planeurs de Puivert en Quercorb;Aérodrome Hameau de Campgast;04.68.20.80.14;
43.6408333333333;3.14555555555556;BEDARIEUX / La Tour-Sur-Orb;Aéroclub de Bédarieux Grand'Orb;163, chemin de saint-exupéry Chemin St Exupery 34600 BEDARIEUX;04.67.95.08.33;https://www.acbedarieux-grandorb.fr
47.2566666666667;-0.113611111111111;SAUMUR / Saint-Florent;Saumur Air Club;Aérodrome Rte Marson-St Hilaire St Florent 49400 SAUMUR;02.41.50.20.27;http://www.aeroclub-saumur.net/
48.7525;-0.589444444444444;FLERS / Saint-Paul;Aéroclub de Basse Normandie Flers/Condé;Route de Granville 61100 FLERS;02.33.65.96.36;http://aeroclub-de-flers.fr
49.5338888888889;0.0880555555555556;LE HAVRE / Octeville;Aéroclub du Havre Jean Maridor;Aérodrome du Havre 295rue Louis Blériot 76620 LE HAVRE;09 50 58 01 78;http://aeroclub-lehavre.fr
50.1430555555556;1.8325;ABBEVILLE;Aéroclub d'Abbeville-Buigny-Baie de Somme;Aérodrome d'Abbeville RN1 80132 BUIGNY SAINT MACLOU;03.22.24.08.48;http://aeroclub-abbeville.fr/
48.7597222222222;0.659166666666667;L'AIGLE / Saint-Michel;Amicale des Pilotes de l'Aigle St Michel - APAM;Aérodrome de l'Aigle 61300 L'AIGLE;02.33.24.21.52;http://aeroclub.apam.free.fr
49.2030555555556;-1.50666666666667;LESSAY;Centre Aéronautique de Lessay;Mairie 50430 LESSAY;02.33.46.44.22;http://aeroclub-lessay.fr/
48.7066666666667;1.36277777777778;DREUX / Vernouillet;Aéroclub de Dreux;Aérodrome Vernouillet Route de Chateauneuf 28500 VERNOUILLET;02.37.46.26.49;https://www.aero-club-dreux.com/
46.4769444444444;-1.72277777777778;LES SABLES D'OLONNE / Talmont;Aéroclub de la Vendée;Aérodrome de la Lande 14 rue du Petit Versailles Château d'Olonne 85180 LES SABLES D'OLONNE;02.51.22.07.30;
49.3908333333333;1.18388888888889;ROUEN / Vallée de Seine;Aéro-Club de Rouen Normandie;Aéroport Rouen Vallée de Seine rue Maryse Bastié 76520 BOOS;02.35.79.18.26;https://www.aeroclub-rouen.fr
47.6797222222222;1.20583333333333;BLOIS / Le Breuil;Aéroclub Blois Vendome;Aérodrome de Blois le Breuil 41330 LA CHAPELLE VENDOMOISE;02.54.20.17.68;https://acbv.fr/
48.4588888888889;1.52388888888889;CHARTRES Métropole;Aéroclub d'Eure et Loir;Aérodrome de Chartres-Métropole 41, chemin du grand gibet 28000 CHARTRES;02.37.34.43.48;
49.8352777777778;0.655833333333333;SAINT VALERY / Vittefleur;Aéroclub Cauchois;Aérodrome St Valéry Vittefleur 76460 ST SYLVAIN;0686973838;https://www.aeroclub-cauchois.com/
47.4319444444444;0.723055555555556;TOURS / Val de Loire;Tours Aéroclub;40 rue de l'Aéroport 37100 TOURS;02.47.73.08.13;http://www.toursaeroclub.fr
48.0322222222222;-0.742777777777778;LAVAL / Entrammes;Aéroclub de la Mayenne;566 Route d'Angers 53000 LAVAL;02.43.53.02.09;http://aeroclubdelamayenne.fr
48.6052777777778;2.67083333333333;MELUN / Villaroche;"Aéroclub de Melun Villaroche "" constantin";Aérodrome de Melun Villaroche 77550 MOISSY CRAMAYEL;01.64.64.20.55;http://acmv.free.fr
48.7233333333333;2.37944444444444;PARIS / Orly;France DC3;67, Boulevard Richard Lenoir 75011 PARIS;01.60.80.97.80;https://www.francedc3.fr/
48.7072222222222;2.90444444444444;FONTENAY TRESIGNY;Aéroclub de Chaubuisson;Aérodrome 77610 FONTENAY TRESIGNY;01 64 25 91 45;http://www.aeroclub-chaubuisson.com/
44.179927;4.918656;ORANGE / Plan de Dieu;Aéroclub du Plan de Dieu;Aérodrome Plan de Dieu Route de Sablet 84850 TRAVAILLAN;06.85.53.72.83;http://www.aeroclubduplandedieu.fr/
48.3419444444444;2.79944444444444;MORET / Episy;Aéroclub de la Vallée du Loing;Mairie 77250 MORET SUR LOING;01.64.45.83.63;http://www.aeroclub-moret.fr
48.5947222222222;6.54333333333333;LUNÉVILLE / Croismare;Aéroclub de Lorraine;Aérodrome Luneville Croismare 54300 CHANTEHEUX;03.83.74.10.08;https://www.aeroclubdelorraine.fr/
50.3247222222222;2.80416666666667;ARRAS / Roclincourt;Les Ailes Arrageoises;Maison des Sociétés 16 rue A. Briand 62000 ARRAS;03.21.24.89.09;
46.9725;4.26222222222222;AUTUN / Bellevue;Aéroclub du Morvan;Aérodrome d'Autun Bellevue BP 8;03.85.52.14.40;
47.8463888888889;4.58055555555556;CHATILLON-SUR-SEINE;Aéroclub du Chatillonnais;Aérodrome 21400 CHATILLON SUR SEINE;03.80.91.05.02;http://www.aeroclubchatillon.org/
50.3091666666667;4.03138888888889;MAUBEUGE / Elesmes;Union Aérienne Sambre et Helpe;Aerodrome de la Salmagne Maubeuge Zone Sud 59600 MAUBEUGE;03.27.68.40.25;http://www.aeroclubmaubeuge.com/
48.9061111111111;4.35416666666667;CHALONS / Ecury-Sur-Coole;Aéroclub Farman Clément;Mairie 51000 CHALONS sur CHAMPAGNE;03.26.67.61.01;http://www.aeroclub-farman-clement.com
50.4672222222222;2.82194444444444;LENS / Bénifontaine;Aéroclub Gaston Vailler;Aérodrome de Lens Benifontaine 62880 VENDIN LE VIEIL;03.21.67.72.60;
50.7294444444444;2.23583333333333;SAINT OMER / Wizernes;Aéroclub de Saint - Omer;Plateau des bruyères 62219 LONGUENESSE;03.21.38.25.42;http://acsto.free.fr
50.6872222222222;3.07555555555556;LILLE / Marcq-en-Baroeul;Union Aérienne de Lille-Roubaix-Tourcoing - UALRT;Av du Gal de Gaulle Aérodrome Lille Marcq 59910 BONDUES;03.20.72.40.98;http://www.ualrt.org/
50.5633333333333;3.08694444444444;LILLE / Lesquin;Club Aérien Lille Métropole;Aéroport de Lille-Lesquin Zone aviation loisir Route de l’Aéroport 59810 LESQUIN;03.20.60.18.54;http://www.calm.asso.fr
48.9513888888889;7.07777777777778;SARRE-UNION;Aéroclub de la Région de Sarre-Union;Aérodrome Victot Hamm RD 1061 67260 SARRE-UNION;03.69.35.25.22;
49.7858333333333;4.64416666666667;CHARLEVILLE / Mézières;Les Ailes Ardennaises;Aérodrome des Ardennes Étienne Riché 08090 BELVAL;03.24.52.90.42;http://www.ailes08.fr
47.6394444444444;6.20527777777778;VESOUL / Frotay;Aéroclub de la Haute-Saône;Aérodrome Vesoul-Frotey 2500 route de l'Aérodrome 70000 FROTEY LES VESOUL;09.61.37.53.85;http://aeroclub70.free.fr
48.115;4.82083333333333;JUVANCOURT;Aéroclub du Barsuraubois;Aérodrome Chemin de Cirfontaines 10310 JUVANCOURT;03.25.27.81.06;http://www.aeroclub-du-barsuraubois.fr/
49.6508333333333;-1.47527777777778;CHERBOURG / Maupertus;Aéroclub Jean Piquenot;524 rue de l'aéroport 50330 GONNEVILLE-LE THIL;02 33 22 13 55;http://ac-cherbourg.com
47.2894444444444;-2.34638888888889;LA BAULE / Escoublac;Aéroclub de la Côte d'Amour;Aérodrome d'Escoublac 44500 LA BAULE;02.40.60.23.84;http://www.aeroclub-labaule.com
48.8827777777778;-1.56388888888889;GRANVILLE;Aéroclub de Granville;46 route de l'aérodrome 50290 BREVILLE SUR MER;02.33.50.24.24;http://aeroclubgranville.fr/
49.3633333333333;0.16;DEAUVILLE / Saint-Gatien;Aéroclub de Deauville;Aéroport de Deauville 14130 ST GATIEN DES BOIS;02.31.64.00.93;http://www.aeroclub-deauville.fr/
47.9486111111111;0.201666666666667;LE MANS / Arnage;Les Ailes du Maine Avion;Aérodrome Le Mans-Arnage 72100 LE MANS;02.43.84.10.23;http://www.adm-avion.com
48.755;-3.47444444444444;LANNION / Servel;Aéroclub de la Côte de Granit;Rue du Commandant Coadou 22300 LANNION;02.96.48.47.42;https://www.accg.fr
47.975;-4.16777777777778;QUIMPER / Pluguffan;Aéroclub de Quimper / JM Le Bris;Aérodrome Cidex 114-1 29700 PLUGUFFAN;02.98.94.05.22;http://www.aeroclub-quimper.fr/
48.5375;-2.85666666666667;SAINT BRIEUC-ARMOR;Aéroclub St-Brieuc Armor;Aéroport St Brieuc Armor 22440 TREMUSON;02 90 03 23 71;http://acsaintbrieuc.org
48.6616666666667;-1.40444444444444;AVRANCHES / Le Val-St-Père;Aéroclub des Grèves du Mont St Michel;A/D d'Avranches - Le Val St Père 55 Bouillé 50300 LE VAL SAINT PERE;02.33.58.02.91;https://www.aeroclub-avranches.org
47.3105555555556;-2.15666666666667;SAINT NAZAIRE / Montoir;Aéroclub de l'Estuaire - St Nazaire;Aéroport St Nazaire Montoir Rue Henri Gautier 44550 MONTOIR DE BRETAGNE;02.51.10.82.53;http://www.ace.lfrz.fr
47.2747222222222;6.08416666666667;BESANÇON / Thise;Association Vol Moteur Aéro-Club du Doubs;Aérodrome 25220 THISE;03.81.61.27.00;http://www.aeroclubthise.fr
48.2119444444444;6.44916666666667;EPINAL / Dogneville;Aéroclub Vosgien;160 Route de l'aviation 88000 DOGNEVILLE;09.63.28.67.34;http://www.aeroclub-vosgien.com
48.325;6.06666666666667;EPINAL / Mirecourt;Aéroclub du Xaintois;Aéroport Epinal Mirecourt 88500 MIRECOURT;03.29.37.15.41;http://www.aeroclubmirecourtvittel.fr
48.6338888888889;4.90888888888889;SAINT-DIZIER / Robinson - Militaire;Aéroclub de Saint Dizier Robinson;34 rue Godard Brulliard 52100 SAINT DIZIER;03.25.05.04.67;http://aeroclub-saint-dizier.com
49.6597222222222;5.03777777777778;SEDAN / Douzy;Aéroclub Roger Sommer;Aérodrome Sedan Douzy 08140 SEDAN;03.24.26.25.07;http://www.aeroclub-sommer.com
48.7033333333333;4.68444444444444;VITRY-LE-FRANÇOIS / Nauclerc;Aéroclub François 1er;Mairie;03.26.74.28.18;
47.4866666666667;6.79138888888889;MONTBELIARD / Courcelles;Aéroclub du Pays de Montbéliard;Rue de l'aérodrome 25420 COURCELLES LES MONTBELIARD;07.82.99.07.41;http://www.aeroclub-montbeliard.fr/
48.6922222222222;6.22611111111111;NANCY / Essey;Les Ailes Nancéiennes;Aéropôle Grand-Nancy Tomblaine Avenue Nelson Mandela 54510 TOMBLAINE;03 83 29 34 58;https://www.nancy-aero.com/
46.9094444444444;6.33;PONTARLIER;Aéroclub de Pontarlier;Aérodrome Route de Salins 25300 PONTARLIER;03.81.39.09.70;http://aeroclub-pontarlier.org
47.9655555555556;5.295;LANGRES / Rolampont;Aéroclub Langrois;Hotel de Ville 52200 LANGRES;03.25.84.70.24;http://aeroclub-langres-rolampont.fr/
49.0052777777778;4.08694444444444;EPERNAY / Plivot;Les Ailes Sparnaciennes;Aérodrome Epernay Plivot 190 allée Clément Ader 51150 PLIVOT;03.26.57.64.04;http://www.aeroclub-epernay.com
43.2063888888889;6.4825;LA MOLE;Aéroclub du Golfe de Saint-Tropez;Aérodrome St Tropez La Mole 31 route du Canadel 83310 LA MOLE;06 07 53 97 36;
45.9797222222222;5.33777777777778;AMBERIEU;Club Aéronautique du Bugey;1, Chemin de l'Aéro-Club 01500 CHATEAU-GAILLARD;06 09 06 84 82;http://www.aeroclub-amberieu.fr
45.7019444444445;-0.636111111111111;SAINTES / Thénac;Aéroclub de Saintes;Aérodrome de Saintes Thénac 17460 THENAC;05.46.93.08.97;https://www.aeroclubdesaintes.com/
50.1425;3.265;CAMBRAI / Niergnies;Union Aéronautique du Cambresis - Club L. Blériot;Aérodrome Cambrai Niergnies 59400 NIERGNIES;03.27.81.26.56;http://aeroclubcambrai.com/
47.3208333333333;1.68888888888889;ROMORANTIN / Pruniers;Aéroclub de Sologne;Hôtel de ville 41200 ROMORANTIN;02.54.96.35.07;http://www.ac-sologne.fr
42.4472222222222;2.01083333333333;SAINTE-LEOCADIE;Aéroclub ICARIA;Aérodrome 66800 SAINTE LEOCADIE;06.09.30.89.24;http://www.aeroclubicaria.fr/
49.638889;0.731944;YVETOT / Baon le Comte;Aéroclub d'Yvetot Lucien Canu;Route de Cany;06.58.73.30.59;
-17.556667;-149.611389;TAHITI FAA'A;Union Tahitienne Aeronautique - Ass Aero UTA-ADF;Aéroport de Tahiti FAAA BP 60 031 98703 FAAA / TAHITI;06.89.83.81.09;http://www.ailesfenua.net
-9.7687902;-139.0110016;ATUONA / HIVA Oa;Aéroclub des Marquises Jacques BREL;Atuona / Hiva Oa 98741 ATUONA;0068987739;https://aeroclubdesmarquises.pf/
4.819722;-52.361944;CAYENNE / ROCHAMBEAU;Aéroclub de Cayenne Matoury;Zone Aéroportuaire Félix Eboué 97351 MATOURY / GUYANE;05.94.35.61.28;www.aeroclubcayenne-matoury.fr
5.175;-52.694444;KOUROU;Aéroclub de Kourou;BP 511 97385 KOUROU CEDEX / GUYANE;05.94.32.09.66;http://www.ackourou.fr/
16.257778;-61.2625;SAINT FRANCOIS;Aéroclub Saint-François Caraïbes;Aérodrome de Saint François 97118 SAINT FRANCOIS /GUADELOUPE;05 90 88 70 10;www.aeroclubsaintfrancois.fr
18.100556;-63.048889;SAINT MARTIN Grand'Case;Aéroclub Saint-Martin SFG;Aéroport de Grand case Route de l'Espérance 97150 SAINT-MARTIN / GUADELOUPE;;http://www.aeroclubsaintmartin.org
50.9608333333333;1.95138888888889;CALAIS / DUNKERQUE;Aéroclub de Calais;Aérodrome de Calais-Marck 62730 MARCK Aéroclub de la Côte d'Opale Aérogare Aéroport Calais-Marck 62730 MARCK;03.21.82.71.41;http://aeroclub.calais.free.fr
49.9725;2.69138888888889;ALBERT / Bray;Aéroclub d'Albert Meaulte;Hôtel de Ville 80300 ALBERT Amicale des Avions Anciens d'Albert Aéroport d'Albert-Picardie 1 rue Hanry Potez 80300 MEAULTE;03.22.75.34.24;http://aeroclubalbertmeaulte.site/
48.9272222222222;-0.144722222222222;FALAISE / Mont-d'Eraines;Aéroclub de Falaise;Hôtel de ville 14700 FALAISE Aéro classic Falaise Aérodrome de Falaise 14620 DAMBLAINVILLE;02.31.90.06.54;www.aeroclubdefalaise.fr
49.8730555555556;2.38694444444444;AMIENS / Glisy;Aéroclub de Picardie Amiens Métropole;Rue du maitre du monde 80440 GLISY Aéroclub Amiens-Glisy 25 rue Robur le Conquérant Aérodrome d'Amiens Glisy;03.22.38.10.70;https://www.acpam.fr/
46.1791666666667;-1.19527777777778;LA ROCHELLE / Ile de Ré;Aéroclub de la Rochelle et Charente-Maritime;Aérodrome de La Rochelle Ile de Ré - Rue du Jura 17000 LA ROCHELLE Club Grand Ouest Aviation - CGOA 2, Rue du Jura 17000 LA ROCHELLE;05.46.42.54.74;http://aeroclub17.com
46.5875;0.306666666666667;POITIERS / Biard;Aéroclub du Poitou;Aérodrome de Poitiers 86580 BIARD Association Sportive Poitiers 86 Aérodrome de Poitiers Biard 1 Rue du sous-lieutenant Collart 86580 BIARD;05.49.58.22.14;https://www.aero-club-poitou.fr/
45.8608333333333;1.18027777777778;LIMOGES / Bellegarde;Aéroclub de Limoges-Bellegarde;"Aérodrome de Bellegarde 81 avenue de l'Aéroport 87100 LIMOGES Aéroclub NASA Centre Haute-Vienne Limoges Voltige Hangar n°3 ""CCI"" Aéroport Internat. de Limoges 87100 LIMOGES";05.55.00.13.48;http://aeroclubdulimousin.blogspot.fr
43.6891666666667;-1.06888888888889;DAX / Seyresse;Aéroclub de Dax;Aérodrome de Dax Seyresse 101 Route de Tercis 40100 DAX GenAiRation Antonov 96 Ave Kléber 75116 PARIS;05.58.74.14.20;http://www.aeroclubdedax.fr
42.8;0.6;BAGNERES-DE-LUCHON;Association des Pilotes Pyrénéens de Montagne - APPLFCB;Aérodrome 31110 BAGNERES-DE-LUCHON Luchon Air Club Moteur Aérodrome Léon Elissalde 31110 BAGNERES DE LUCHON;06.74.66.95.89;http://www.pilotes-pyreneens.org
44.7561111111111;-1.06333333333333;ANDERNOS / Les Bains;Aéroclub d'Andernos;Aérodrome d'Andernos Route de Bordeaux Allée du Cmdt René Mouchotte 33510 ANDERNOS LES BAINS HELI'S COOL 'Héliclub du Bassin d'Arcachon' Allée du Cdt René Mouchotte 33510 ANDERNOS LES BAINS;05.56.82.18.77;http://www.aeroclubandernos.com
43.9133333333333;2.11666666666667;ALBI / Le Séquestre;Aéroclub d'Albi;Aérodrome d'Albi le Séquestre 81990 LE SEQUESTRE Albi Aérocopter Aérodrome d'Albi Hangar Est 81990 LE SEQUESTRE;06 50 44 33 26;http://aeroclub.albi.aero
44.4075;2.48333333333333;RODEZ / Marcillac;Les Ailes Ruthénoises;CCI - 17 rue Aristide Briand 12033 RODEZ Cedex Aéroclub Av'AIRon club Aéroport de Rodez-Marcillac Route de Decazeville 12330 SALLES LA SOURCE;05 65 59 19 12;http://www.ailes-ruthenoises.fr/
44.7002777777778;-0.595555555555556;BORDEAUX / Léognan-Saucats;Dassault Aéroclub Aquitaine;Aérodrome de Leognan-Saucat 303 avenue de Mont de Marsan 33850 LEOGNAN Aéroclub de Bordeaux 305 Av de Mont de Marsan 33850 LEOGNAN;06 74 65 21 94;http://www.aero-club-bordeaux.com
44.0858333333333;1.12722222222222;CASTELSARRASIN / Moissac;Aéroclub Moissac Castelsarrasin;Aérodrome Gandalou 82100 CASTELSARRASAIN Association Bréguet XIV Aérodrome de Castelsarrasin - Moissac 82100 CASTELSARRASIN;05.63.32.29.78;https://acmc82.fr/
45.8894444444444;-0.9825;ROCHEFORT / St-Agnant;Aéroclub Charentais;Aéroport de Rochefort- Charente-Maritime La Sauzaie 17620 ST AGNANT Aéroclub du Pays Rochefortais Aéroport Rochefort - St Agnant 17620 SAINT AGNANT;05.46.83.03.16;http://accharentais.free.fr/
47.5475;5.21194444444444;TIL / Châtel;Aéroclub du Val d'Is;Aérodrome Til Chatel RN 74 21120 TIL CHATEL Dijon Voltige Parc de Mirande Bâtiment B 14 rue Pierre de Coubertin 21000 DIJON;03.80.95.17.87;http://www.acvi.org
47.4333333333333;5.62277777777778;GRAY / St-Adrien;Aéroclub de Gray et de sa Région;Aérodrome de GRAY ST ADRIEN 70100 GRAY Aéroclub des Monts de Gy Mairie;03.84.65.00.84;http://www.gray-aeroclub.fr
48.8986111111111;1.25055555555556;SAINT-ANDRÉ-DE-L'EURE;Aéroclub d'Evreux les Authieux;Route de Damville 27220 LES AUTHIEUX Club Aéronautique de St André de l'Eure Route des aérodromes 27220 SAINT ANDRE DE L'EURE;02.32.37.52.80;https://www.aeroclub-evreux.com/
49.0672222222222;3.35694444444444;CHÂTEAU-THIERRY / Belleau;Aéroclub de Château-Thierry;Aérodrome Champ Cadet 02400 CHÂTEAU-THIERRY Association de Voltige Aérienne de Château-Thierry Aérodrome du Champ Cadet 02400 CHÂTEAU-THIERRY;03 23 69 19 62;http://www.aeroclub-chateau-thierry.fr
48.1102777777778;7.35916666666667;COLMAR / Houssen;Aéroclub de Colmar;Aérodrome Colmar Houssen 68000 COLMAR Association REVA Aérodrome de Colmar Houssen 25 allée de la Foire aux Vins 68000 COLMAR;0962160167;https://www.aeroclub-colmar.fr/
49.1527777777778;5.93277777777778;DONCOURT LES-CONFLANS;Centre d'Aviation du Bassin de Briey;Aérodrome 54800 DONCOURT LES CONFLANS Ailes Anciennes de Lorraine 82 rue du Général de Gaulle 57570 BOUST;06 16 91 14 20;http://cabb-lfgr.com/
45.6541666666667;4.91361111111111;LYON / Corbas;Aéroclub Lyon Corbas;450A rue Clément Ader 69960 CORBAS Ailes anciennes de Corbas BP Mairie Place Charles Jocteur 69960 CORBAS;04.72.50.28.42;https://www.aeroclub-lyon-corbas.com
45.2402777777778;0.266944444444444;RIBERAC / Saint-Aulaye;Aéroclub Jean Mermoz;Tourette 24600 VANXHAINS Club Aéronautique du Ribéracois Aérodrome de Ribérac-Tourette 24600 VANXAINS;05.53.90.10.41;https://clubaeroriberacois.wixsite.com/car24
42.55;9.48472222222222;BASTIA / Poretta;Aéroclub Bastia St Exupéry;Aéroport Bastia Poretta Zone Aviation Générale 20290 LUCCIANA Aéroclub Bastia - Poretta Aérodrome de Bastia - Poretta 20290 LUCCIANA;04.95.36.24.85;http://aeroclub-saint-exupery.fr
45.5613888888889;5.97694444444444;CHAMBÉRY / Challes-Les-Eaux;Les Amis du CLAP 73;aérodrome de Challes les Eaux 73190 Challes les Eaux Aéroclub de Challes les Eaux Aérodrome Avenue de Chambery 73190 CHALLES-LES-EAUX;07.67.92.76.01;http://www.aeroclub-clap73.org
45.9308333333333;6.10638888888889;ANNECY / Meythet;Aéroclub d'Annecy Haute Savoie;8 rue de Côte Merle 74370 Epagny-Metz-Tessy IMPLANT AIR 17, Impasse Sous Bois;04.50.22.04.25;http://www.aeroclubannecy.com
44.5836111111111;4.74055555555556;MONTELIMAR / Ancône;Aéroclub de Montélimar Porte de Provence;ACMPP Chemin de l'aérodrome 26200 MONTELIMAR Musée Européen de l'Aviation de Chasse Aérodrome Route d'Ancone 26200 MONTELIMAR;06 16 79 92 71;http://www.acmpp.club
45.3630555555556;5.33277777777778;GRENOBLE / Saint-Geoirs;Aéroclub ENAC Grenoble;109 rue Roland Garros Z.A. Grenoble Air Parc 38590 ST ETIENNE DE ST GEOIRS Aéroclub de Grenoble Isère et sa Région - AGIR 28 rue Léon Perrier 38500 VOIRON;04.74.54.69.19;https://www.aeroclub-agir.fr/
43.3233333333333;3.35333333333333;BEZIERS / Vias;Aéroclub de Béziers;Aérodrome de Béziers Agde Vias RD 612 34420 PORTIRAGNES Les Ailes du Canal du Midi rue Aéroport de Béziers Cap d'Agde 34420 PORTIRAGNES;06.34.43.94.28;http://www.aerobeziers.com
43.3122222222222;1.92111111111111;CASTELNAUDARY / Villeneuve;Aéroclub J. Doudies Castelnaudary;Route Mas Stes Puelles 11400 CASTELNAUDARY Aéro-Club des Personnels de l'ENAC de Castelnaudar Aérodrome Route du Mas Saintes Puelles;04.68.23.10.50;https://aeroclubjeandoudies.fr/
43.1758333333333;2.73361111111111;LEZIGNAN / Corbières;Aéroclub de Lézignan;Route de Ferrals Aérodrome 11200 LEZIGNAN - CORBIERES Aéroclub Pierre-Georges Latécoère Aéroport de Toulouse Francazal 1 Avenue du Général BARES 31270 CUGNAUX;06.98.77.76.84;https://aeroclubdelezignan1.wixsite.com/aeroclubdelezignan
44.455;6.03777777777778;GAP / Tallard;Aéroclub Alpin;520 rue Pierre Georges Latécoère 05130 TALLARD Aéroclub Val de Durance 910 rue Pierre Georges Latécoère 05130 TALLARD;04.92.54.18.80;https://www.aeroclubalpin.fr/
43.7377777777778;5.78416666666667;VINON;Aéroclub Cadarache Provence;Aérodrome de Vinon 83560 VINON SUR VERDON Aéroclub de Manosque Vinon 16, lieu dit Aérodrome 83560 VINON SUR VERDON;04.92.78.81.09;www.aeroclub-cadarache-provence.fr
43.5377777777778;5.17833333333333;BERRE / La Fare;Aéroclub Louis Rouland;Eurocopter France BP 13 13725 MARIGNANE Cedex Aéroclub Louis Bonte Aérodrome de Berre la Fare 405 chemin Eugène Sixdenier 13130 BERRE L'ETANG;04.90.42.64.52;http://aeroclub-louisbonte.fr/
48.0577777777778;1.37944444444444;CHATEAUDUN;Aéroclub de Châteaudun;Base Aérienne 279 28200 CHATEAUDUN Académie de Voltige Chateaudun 2 route d'Orléans 28200 CHATEAUDUN;02.37.45.43.43;http://www.aeroclub-chateaudun.fr
48.4475;0.109166666666667;ALENÇON / Valframbert;Aéroclub d'Alençon et sa Région;Aérodrome d'Alençon Valframbert 61000 ALENCON Association de Voltige Alençonnaise Aérodrome d'Alençon 61000 ALENCON;02.33.29.25.86;http://www.aeroclub-alencon.org
47.0819444444444;-0.877222222222222;CHOLET / Le Pontreau;Aéroclub du Pontreau Cholet;Rue Charles Lindberg Aérodrome du Pontreau 49300 CHOLET Aérienne du Choletais Aérodrome Roland Garros 49300 CHOLET;02.41.58.76.61;http://www.acp-cholet.fr
49.5447222222222;0.361111111111111;LE HAVRE / Saint-Romain;Aéroclub de l'Estuaire de la Seine;Aérodrome 1177 rue de la Brulerie 76430 GOMMERVILLE Aéroclub de Gravenchon Hotel de Ville 76330 NOTRE DAME DE GRAVENCHON;02.35.20.82.61;http://aces.aero.free.fr
47.8975;2.16416666666667;ORLEANS / St-Denis-de-L'Hôtel;Aéroclub d'Orléans Loiret Col. Jean Demozay;46 Ter rue Ste Catherine 45000 ORLEANS Club de Voltige Aérienne d'Orléans - CVAO Aérodrome des 4 vents;02.38.59.18.34;http://www.aeroclub-orleans.fr
49.1027777777778;0.566666666666667;BERNAY / St-Martin;Club Aéronautique de l'Arrondissement de Bernay;Aérodrome Bernay St Martin 27300 BERNAY A. A. de Louviers les Fontenelles LYCEE POLYVALENT CHEMIN DES FONTENELLES;02.32.43.15.62;http://www.aeroclubbernay.fr
48.3216666666667;4.01666666666667;TROYES / Barberey;Les Ailes Troyennes;Aéroport de Troyes-Barberey 10600 BARBEREY ST SULPICE Air Campus Troyes Aéroport de Troyes en Champagne Route départementale 619 10600 Barberey-Saint-Sulpice;03.25.74.50.54;https://sites.google.com/view/les-ailes-troyennes
47.0036111111111;3.11083333333333;NEVERS / Fourchambault;Aéronautique du Nivernais;Aérodrome Nevers Fourchambault La sangsue 58180 MARZY Aéroclub des Pilotes du Centre Aérodrome Nevers Fourchambault 58000 NEVERS;03.86.57.27.51;https://www.aeroniv.fr
47.2052777777778;6.08055555555556;BESANÇON / La Vèze;Aéroclub de Besançon la Veze;Aérodrome de Besançon la Veze 25660 LA VEZE Club Aéronautique Comtois - CAC Aérodrome de Besançon - La Vèze 25660 LA VEZE;03.81.81.50.82;http://www.aeroclub-besancon.fr
50.6166666666667;2.64;MERVILLE / Calonne;Aéroclub de la Lys et de l'Artois;Hotel de Ville 59660 MERVILLE Cercle Aérien de Lestrem 60, Basse rue 62136 LESTREM;03.21.26.17.09;https://aeroclublys.org
48.4472222222222;-4.42166666666667;BREST / Guipavas;Aéroclub Brest Finistère;Aéroport Brest Guipavas 29490 GUIPAVAS Cercle Aéronautique et Sportif d'Iroise - CASI Aéroport de Brest Bretagne;02.98.84.61.86;http://www.ac-brest-finistere.fr/
48.5877777777778;-2.08;DINARD / PLEURTUIT / Saint-Malo;Aéroclub de la Côte d'Emeraude;Aéroport Dinard Pleurtuit 35730 PLEURTUIT Aéroclub SABENA Technics DNR Aéroport Dinard Pleurtuit St Mal BP 90154;02.99.88.23.42;http://aeroclub-dinard.com
47.7605555555556;-3.44;LORIENT / Lann-Bihoue;Aéroclub de la Région de Lorient;rue Aéroport de Lann Bihoué 56270 PLOEMEUR Section Sports Aériens B.A.N Lann-Bihoué 56998 LORIENT ARMEES;02.97.86.00.34;http://www.aclorient.fr
46.7025;-1.38166666666667;LA ROCHE-SUR-YON / Les Ajoncs;Aéroclub Yonnais;Aérodrome René Couzinet 85000 LA ROCHE SUR YON Vendée Sports Aériens Aérodrome des Ajoncs rue Henri Bessemer 85000 LA ROCHE-SUR-YON;02.51.37.05.17;http://aeroclub-yonnais.com
49.1733333333333;-0.45;CAEN / Carpiquet;Aéroclub Régional de Caen;Aérodrome 14650 CARPIQUET Les Ailes du Calvados Aéroport de Caen Carpiquet Le Haut Marcelet 14740 ST MANVIEU NORREY;02.31.26.52.00;http://www.aeroclub-caen.org
47.1569444444444;-1.60777777777778;NANTES-ATLANTIQUE;Aéroclub de Loire Atlantique;Zone Aéroportuaire 44340 BOUGUENAIS Cedex Aéroclub AIRBUS Nantes Aérodrome Nantes Atlantique 44340 BOUGUENAIS;02.40.75.13.16;http://www.aeroclub-loire-atlantique.fr
48.6008333333333;-3.81666666666667;MORLAIX / Ploujean;Aéroclub de Morlaix;Aéroport 29600 MORLAIX Armor Aéro Passion Aéroport 29600 MORLAIX;02.98.88.32.80;http://aeroclubdemorlaix.fr/
47.7191666666667;-2.72333333333333;VANNES / Meucon;Aéroclub du Pays de Vannes;Aérodrome de Vannes Meucon 56250 MONTERBLANC Morbihan Aero Musée - MAM Mairie de Monterblanc Place de la Mairie;09.65.26.15.60;http://www.acpvannes.fr
48.7977777777778;7.82027777777778;HAGUENAU;Aéroclub de Haguenau;Aérodrome N° 5 67500 HAGUENAU Alsace Voltige Aérodrome 67500 HAGUENAU;03.88.93.88.59;http://www.aeroclub-haguenau.com
45.0353952;1.481531;BRIVE / Souillac;Aéroclub de Brive;Aéroport de Brive-Souillac 19600 NESPOULES Aéroclub de Tulle Hotel de Ville 19000 TULLE;05.55.86.88.37;https://www.aeroclub-brive.com/
48.5436111111111;7.62055555555556;STRASBOURG / Entzheim;Cercle Aéronautique de Strasbourg-Entzheim;Aéroport de Strasbourg 67960 ENTZHEIM Aéroclub Air France - SXB Bâtiment Louis Blériot Route de l’Aéroport - RD 221;03.90.29.74.59;http://aeroclub-strasbourg.fr/
-21.321667;55.425556;ST PIERRE PIERREFONDS;Aéroclub du Sud E. Adam de Villiers;Aérodrome de Pierrefonds 97410 ST PIERRE / LA RÉUNION Aéroclub des Mascareignes Aérodrome de Pierrefonds 97410 SAINT PIERRE / LA RÉUNION Mascareignes Air Training Organisation Chemin des Pêcheurs Aérodrome de Pierrefonds;02 62 55 78 02;www.sites.google.com/site/aeroclubdusud/home
48.5958333333333;3.01416666666667;NANGIS / Les Loges;Aéroclub Albert Moreau Melun;Aerodrome de Nangis 77720 GRANDPUITS BAILLY-CARROIS Aéroclub Marcel Dassault de Melun Villaroche Aérodrome Nangis les Loges 13 rue de l’Aérodrome 77720 Grandpuits-Bailly-Carrois Aéroclub Marcel Dassault voltige 15 route de l'aérodrome 77720 GRANDPUITS BAILLY CARROIS;01.64.08.08.70;http://www.aeroclubnangis.fr/
43.38;-0.418611111111111;PAU-PYRÉNÉES;Aéroclub du Béarn;3, rue Saint Exupéry 64230 SAUVAGNON Pau Pyrénées Air Club 17 rue St Exupéry 64230 SAUVAGNON Uzein Aéroclub Turboméca C/O M. Franck RISSE 13 avenue de Lons;05.59.33.22.00;http://www.aeroclubdubearn.fr
44.3694444444444;-1.13055555555556;BISCAROSSE / Parentis;Aéroclub des Grands Lacs;Aérodrome 2100 Route de Costes & Bellonte 40600 BISCARROSSE Aquitaine Hydravions AC régional Henri Guillaumet Avenue Jodel 40600 BISCARROSSE Aéroclub de Biscarrosse des personnels de l'ENAC 150 rue Jean Chasac;05.58.78.83.43;http://aeroclubdesgrandslacs.com/
43.4683333333333;-1.53111111111111;BIARRITZ / Bayonne-Anglet;Aéroclub Basque;3, allées des Aéroclubs 64600 ANGLET Aéroclub Turbomeca 5 allée des Aéroclubs 64600 ANGLET Aéroclub Dassault Breguet Biarritz BP 313;05.59.23.93.79;http://www.aeroclub-basque.com
44.5986111111111;-1.11472222222222;ARCACHON / La Teste-de-Buch;Aéroclub du Bassin d'Arcachon;Aérodrome Villemarie 33260 LA TESTE Aéroclub François Hussenot Aérodrome de Villemarie 33260 LA TESTE DE BUCH Aéroclub SEPAVIA CE ARIANEGROUP Les Cinq Chemins;05.56.54.72.88;http://www.acba-fr.com
47.5602777777778;-0.312222222222222;ANGERS / Marcé;Aéroclub Angers Marcé;Angers Loire Aéroport 49140 MARCE Centre de Perfect. Voltige Aérienne Aérodrome 49140 MARCE ESPACE AIR PASSION - Group. Preserv. Patri. Aéro. Aérodrome d'Angers 49140 MARCE;02.41.33.50.61;http://aeroclub-angers.fr
45.7858333333333;3.1625;CLERMONT FERRAND-AUVERGNE;"Aéroclub d'Auvergne ""Gilbert Sardier""";Aéroport Clermont-Ferrand- Auvergne 63510 AULNAT Aéroclub de l'Atelier Industriel de l'Aéronautique A.I.A. - BP 11 161 Av du Brezet 63028 CLERMONT FERRAND Cedex 2 Aéroclub Clermont Limagne Cité de l'Aéronautique Rue Youri Gagarine 63000 CLERMONT FERRAND;04.73.92.00.56;http://www.aeroclubauvergne.fr
45.2191666666667;5.84972222222222;GRENOBLE / Le Versoud;Association Française des Pilotes de Montagne;route de l'Escale 04290 VOLONNE Aéroclub du Dauphiné Aérodrome du Versoud 38420 LE VERSOUD Aéroclub du Grésivaudan Aérodrome le Versoud 38420 LE VERSOUD;04.76.77.28.46;https://www.aeroclubdudauphine.fr/fr/
46.0527777777778;3.99972222222222;ROANNE / Renaison;Amicale des Pilotes du Roannais;Aérodrome Roanne Renaison 42155 ST LEGER SUR ROANNE Club Aéronautique Roannais - CAR Aérodrome de Roanne Renaison Route de Combray 42155 SAINT-LEGER SUR ROANNE Passion Train Classique C/O M. ABOULIN Stéphane Route de Combray;07.82.06.13.71;http://caraeronews.blogspot.com/
45.2561111111111;4.82583333333333;SAINT-RAMBERT-D'ALBON;Aéroclub d'Annonay & de la Vallée du Rhône;Aérodrome du creux de la Thine 1692 Route RN7 NORD 26140 ALBON AERORETRO Aérodrome du Creux de la Thine 26140 ALBON Association Lyon Voltige 104 Chemin des Grandes Vignes;04.75.03.19.29;http://www.aeroclubdannonay.org
43.8538888888889;4.41361111111111;NÎMES / Courbessac;Aéroclub du Gard;Chemin de l'Aérodrome 30000 NIMES Aéroclub de Nîmes Aérodrome de Courbessac 30000 NIMES Association de développement de l'aérodrome Nïmes-CLFME Chemin de l'Aérodrome Aérodrome de Courbessac;04.66.26.19.63;http://aeroclub-du-gard.fr/
42.7408333333333;2.86972222222222;PERPIGNAN / Rivesaltes;Aéroclub du Roussillon;Aéroport Perpignan Rivesaltes Av Maurice Bellonte 66000 PERPIGNAN Base Latécoère Catalane Aeroport de Perpignan-Rivesaltes 499, Ave. Maurice Bellonte 66000 PERPIGNAN Perpignan Hélico Pôle Hélico Aéroport Perpignan Avenue Maurice Bellonte 66330 PERPIGNAN;04 68 73 48 18;http://www.aeroclub-roussillon.com
43.5833333333333;3.96138888888889;MONTPELLIER-MÉDITERRANÉE;Aéroclub de l'Herault Montpellier-Occitanie;Aéropt. Montpellier Méditerranée 34130 MAUGUIO Aeroclub ENAC Montpellier Centre ENAC Aéroport Montpellier 34137 MAUGUIO Aéroclub de Montpellier-Hérault Aéropt. Montpellier Méditerranée 34134 MAUGUIO;04.67.15.05.05;https://www.aeroclub-herault.org/
43.9066666666667;4.90194444444445;AVIGNON / Caumont;Aéroclub Vauclusien;170, Impasse Roland Garros 84140 MONTFAVET Sud Aérobatic C/O M. TOURNIER Christian 2121 route des Paluds 13940 MOLLEGES Sud Voltige Aérienne - SVA Aéroport d'Avignon-H21-Zone II 2 route de Caumont 84140 MONTFAVET;04.90.84.17.17;http://www.aeroclubvauclusien.com/
43.6583333333333;5.01361111111111;SALON / Eyguières;Aéroclub Rossi Levallois;Aérodrome Salon Eyguieres 13300 SALON DE PROVENCE Aéroclub Marcel Dassault Provence Aérodrome Salon Eyguières Route de l'aérodrome 13300 SALON- DE-PROVENCE Alpes Sud Vol Montagne 6 rue de la Mairie;04.90.42.02.52;http://www.aeroclubrossilevallois.fr
44.0233333333333;5.09083333333333;CARPENTRAS;Aéroclub du Comtat Venaissin;Aérodrome Edgar Soumille 232 chemin de st gens 84210 PERNES LES FONTAINES Aero Formation Ventoux 648 Route du Pont de Crillon 84410 CRILLON LE BRAVE CARRI'AIR Aérodrome Edgard Soumille 232 chemin des Saint-Gens;06 84 63 57 20;http://www.acdcv.com
49.4544444444444;2.11277777777778;BEAUVAIS / Tillé;Aéroclub du Beauvaisis;Aéroport de Beauvais Tillé Aéroplaisance 60000 BEAUVAIS Aéroclub Beauvais-Tillé AVION PASSION Zone AEROPLAISANCE Aéroport 60000 BEAUVAIS Aéroclub de l'Ile de France Champ Fleuri Route des Parquets;03.44.06.22.73;http://aeroclubdubeauvaisis.blogspirit.com/
48.8977777777778;2.6075;CHELLES / Le Pin;Aéroclub Lucien Bossoutrot;Aérodrome Chelles le Pin 77500 CHELLES Aéroclub du Perreux Aérodrome de Chelles Le Pin 94170 LE PERREUX SUR MARNE Aéroclub de la Région de Chelles Aérodrome Chelles Le Pin 77500 CHELLES;01.60.20.73.62;https://acbossoutrot.fr/
49.2086111111111;4.15666666666667;REIMS / Prunay;Aéroclub de Champagne;Aérodrome de Reims Prunay 51360 REIMS PRUNAY Aéroclub du CRNA - Est Rue Alberto Santos Dumont BP 1033 51687 REIMS Cedex 2 Reims Voltige Aérodrome Reims Prunay Avenue 51360 PRUNAY;03.26.49.11.05;http://www.accraf.com
48.0719444444444;-1.73222222222222;RENNES / Saint-Jacques;Aéroclub Rennes Ille et Vilaine;Aéroport 35136 SAINT JACQUES DE LA LANDE Rennes Air Club 50 rue Jules Vallés 35136 SAINT JACQUES DE LA LANDE Rennes Université Aéroclub Ave Aéroport Joseph Le Brix Aéroport de Rennes St Jacques 35136 SAINT JACQUES DE LA LANDE;02.99.31.91.81;http://www.acriv.org
-22.258333;166.472778;NOUMEA / Magenta;"Aéroclub Calédonien ""Henri Martinet""";Aérodrome de Magenta Rue Gervolino 98845 NOUMEA / NVELLE. CALÉDONIE Cercle Aéronautique de Nouméa 1 rue Henri Martinet 98800 NOUMEA Pégase Formation 1 rue Henri Martinet;06 87 25 49 22;www.cercleaero-noumea.fr
14.592222;-60.996389;MARTINIQUE Aimé Césaire;Madinina Pilot Club;Aéroport Martinique Aimé Césaire Zone Aviation Générale 97230 LE LAMENTIN / MARTINIQUE Aéroclub Horizon Caraïbes Zone d'aviation générale Aéroport Martinique Aimé Césaire 97232 LE LAMENTIN / MARTINIQUE Martinique Easy Fly Zone d'Aviation Générale;05.96.42.38.89;http://www.madininapilotclub.fr
16.264167;-61.525833;POINTE A PITRE / le Raizet;Les Ailes Guadeloupéennes;Aéroport Raizet Sud 97139 LES ABYMES / GUADELOUPE Aéroclub de l'Aviation Civile et de Guadeloupe SNA Antilles-Guyane Aérodrome de Pointe à Pitre - Le Bâtiment Tour de contrôle - Rue 97139 LES ABYMES / GUADELOUPE Aéroclub de Guadeloupe 77 Bd Amede Clara;05.90.83.24.44;http://www.acacg.fr
48.5544444444444;7.77805555555556;STRASBOURG / Neuhof;Aéroclub d'Alsace;Aérodrome du Polygone 38 Rue Guynemer 67100 STRASBOURG Aéroclub Polygone 67 80 rue de la Museau Aérodrome du Polygne 67100 STRASBOURG Association des Pilotes Privés du Polygone - A3P C/O MENDELSSOHN Frédéric 91, Ave du Maréchal Foch 67380 LINGOLSHEIM Les ailes historiques du Rhin Aérodrome du Polygone 82 rue de la Musau 67100 STRASBOURG;07 72 07 16 06;https://www.aero-club-alsace.fr
48.9277777777778;2.83527777777778;MEAUX / Esbly;Aéronautique Club de France;Aérodrome de Meaux - Esbly Route départementale 5 77450 ISLES-LES-VILLENOY Aéroclub d'Esbly Aérodrome de Meaux-Esbly 77450 ESBLY Union des Pilotes Civils de France - UPCF Aérodrome Meaux Esbly 77450 ISLES LES VILLENOY Association Aéronautique Marcel Laurent Darse C Aerodrome de Meaux-Esbly route départementale n°5 77450 Isles-lès-Villenoy;01.60.04.24.40;http://acdf-meaux.fr
48.8377777777778;3.01527777777778;COULOMMIERS / Voisins;Aéroclub de Coulommiers et de la Brie;Aérodrome de Coulommiers Voisins RN 34 77120 MOUROUX Association Aéronautique Coulommiers Meaux Aérodrome de Coulommiers Meaux 77120 MOUROUX Ass. des Pilotes d'Avions Rares - APAR 30, avenue du Général de Gaulle 77120 MOUROUX Aéroclub des Sourds de France - ACSF 6 Rue Galilée 75116 PARIS nc;01.64.03.07.22;http://www.accb77.com/
49.11;2.73805555555556;LE PLESSIS-BELLEVILLE;Aéroclub du Valois;Aérodrome du Plessis-Belleville Route Nationale 330 60950 ERMENONVILLE Aéroclub René Mouchotte Aérodrome du Plessis-Belleville 60950 ERMENONVILLE Aéroclub Air France Nord Aérodrome du Plessis Belleville 60950 ERMENONVILLE Aéroclub Dassault Falcon Service Aéroport du Bourget - Zone d'Aviation d'affaires 53-55 av de l'Europe - CS 70003;07 66 53 53 48;http://aeroclub-creil.org
49.0966666666667;2.04083333333333;PONTOISE / Cormeilles-en-Vexin;Aéroclub Hispano Suiza;2 rue de l'Ecole de Mars 92200 NEUILLY SUR SEINE Cergy Pontoise Air Club Aérodrome Pontoise Cormeilles 95650 BOISSY L'AILLERIE Association Sportives Thales Cristal ASTC Aviation 4 avenue des Louvresses 92622 GENNEVILLIERS CEDEX Association Sportive de l'AC Hispano Suiza Aérodrome de Pontoise - Cormeill;01.34.41.77.00;http://www.hispano-suiza.com
48.9983333333333;1.94277777777778;LES MUREAUX;Aéroclub du Val de Seine;Route de verneuil 78130 LES MUREAUX Aéroclub Roger Janin Aérodrome zone civile route de Verneuil 78130 LES MUREAUX cedex Aéroclub Paul Louis Weiller Aérodrome - Hangar 6 Route Jean Pottier 78130 LES MUREAUX Aéroclub de Neuilly 169 Av C. de Gaulle 92200 NEUILLY;09.53.64.54.52;https://www.acvs.fr/
43.4491666666667;1.26361111111111;MURET / Lherm;Aéroclub Clément Ader - Muret;Aérodrome Muret Lherm 31600 MURET Aéroclub Jean-Marie Bonnafé 22 route de l’aviation 31600 MURET Aéroclub Jean Mermoz Aérodrome Muret Lherm 14 Av de l'Aviation 31600 MURET LHERM Midi Pyrénées Voltige Aérodrome Toulouse Lasbordes 34 Av Jean.René Lagasse 31130 BALMA Club de la Formation Aéronautique BP 80 Aérodrome 31603 MURET Cedex;05.61.51.00.60;http://www.acca.aero
47.7380555555556;7.43222222222222;MULHOUSE / Habsheim;Aéroclub du Haut-Rhin;Aérodrome de Mulhouse Habsheim 68170 RIXHEIM Aéroclub des Trois Frontières Rue de l'Aérodrome 68170 RIXHEIM Aéroclub Sud Alsace 100 Rue de l'Aérodrome 68170 RIXHEIM Air Alsace 26 RUE DE L AERODROME AERODROME DE HABSHEIM 68170 RIXHEIM AVIATIK Route de l'Aérodrome 68170 RIXHEIM;03.89.44.01.41;http://www.achr.asso.fr
45.7294444444444;4.93888888888889;LYON / Bron;Aéroclub Les Ailes Lyonnaises;Aérodrome de Lyon Bron 69500 BRON Aéroclub du Rhône et du Sud-Est Aéroport Lyon Bron 69500 BRON Aéroclub CE Renault Trucks Aéroport Lyon Bron 69500 BRON Les Amis du CLAP 69 Aéroport Lyon Bron 69500 BRON Aéroclub du Grand Lyon Aéroport Lyon Bron 69500 BRON;09.50.05.80.01;http://www.aileslyonnaises.com
43.5016666666667;5.37083333333333;AIX / Les-Milles;Aéroclub Aix Marseille;815 Chemin de la Badesse Aérodrome Aix les Milles 13290 LES MILLES Aérobatic Club de la Méditerranée 5 CHEMIN DE LA BADESSE 13290 AIX LES MILLES Air France Provence Aviation Chemin de la Badesse Aérodrome 13290 LES MILLES Aéroclub du Soleil XIII 815 chemin de la Badesse 13290 AIX LES MILLES VUDENHAUT-France Aviation Aérodrome d'Aix Les Milles Route d'Annéot Chemin de la Badesse 13290 AIX-LES-MILLES;04.42.24.21.70;http://www.aeroclub-acam.org
49.165;2.31166666666667;PERSAN / Beaumont;Green Bird Aerobatic Team - GBAT;27 grande Avenue 60260 LAMORLAYE Aéroclub Central des Métallurgistes Aérodrome Persan Beaumont 95340 BERNES sur OISE Aéroclub Paris Nord Aérodrome de Persan Beaumont 95340 BERNES-SUR-OISE Aéroclub ASPTT Paris 8 rue Brillat-Savarin 75013 PARIS Team Horizon Voltige 44 avenue de Gouvieux;06 64 97 87 93;http://accm95.free.fr
43.2475;6.12722222222222;CUERS / Pierrefeu;Aéroclub du Soleil;1029 Bd Bois Maurin 83150 BANDOL Aéroclub du Var Aérodrome Cuers Pierrefeu 83390 CUERS Association Castel Mauboussin Aérodrome civil Cuers Pierrefeu 83390 CUERS Asso. de Pilotes Constructeurs Amateurs de Provenc Aerodrome de Cuers-Pierrefeu Hangar n° 11 83390 CUERS 04.94.33.5.04 Air Training Méditérranée Flyers 31 impasse de l'Estragon;06.22.15.40.59;http://aeroclubdusoleil.com
43.5463888888889;6.95416666666667;CANNES / Mandelieu;Aéroclub de la Côte d'Azur - ACCA;Aéroport de Cannes Mandelieu 245 av Francis Tonner - Bte.n° 2 06150 CANNES LA BOCCA Aéroclub d'Antibes Aéroport de Cannes Mandelieu 06150 CANNES LA BOCCA Union Aéronautique de la Côte d'Azur - UACA Aéroport Cannes Mandelieu 06150 CANNES LA BOCCA Aéroclub Cannes Mandelieu Louis Carrier 245, avenue Francis Tonner Aéroport de Cannes Mandelieu BP 47 06150 CANNES LA BOCCA Cannes Voltige Aérogare Aéroport de Cannes-Mandelieu 06150 CANNES Aéroclub de la Vallée du Loup 4 rue du Frêne;07 86 51 41 50;http://acca-aeroclub.com
48.3811111111111;2.07388888888889;ETAMPES / Montdésir;Aéroclub des Cheminots;Aérodrome Etampes Mondésir 91690 GUILLERVAL Grpt. Aéronautique du Ministère de l'Air - GAMA Aérodrome d’ Etampes-Mondésir 91690 GUILLERVAL Aéroclub Brocard Aérodrome Etampes Mondésir 91690 GUILLERVAL Centre de Pilotage Régional Aérodrome Etampes Mondésir 91690 GUILLERVAL Aéroclub François Richet Aérodrome Etampes Mondésir 91690 GUILLERVAL Aéroclub des Navigants Aérodrome Etampes Mondésir 91690 GUILLERVAL SACLAS Aéroclub des Finances Aérodrome d'Etampes rue Nationale 20 91690 GUILLERVAL;01.60.80.99.57;http://www.aeroclub-etampes.fr
49.8169444444444;3.20666666666667;SAINT-QUENTIN / Roupy;Aéroclub de l'Aisne;Route de Paris Aérodrome de St Quentin 02590 ROUPY Aéroclub de l'Aisne Route de Paris Aérodrome de St Quentin 02590 ROUPY Aéroclub de l'Aisne Route de Paris Aérodrome de St Quentin 02590 ROUPY Aéroclub de l'Aisne Route de Paris Aérodrome de St Quentin 02590 ROUPY Aéroclub de Saint-Quentin Picardie 223 rue de Fayet 02100 SAINT QUENTIN Aéroclub de Saint-Quentin Picardie 223 rue de Fayet 02100 SAINT QUENTIN Aéroclub de Saint-Quentin Picardie 223 rue de Fayet 02100 SAINT QUENTIN Aéroclub de Saint-Quentin Picardie 223 rue de Fayet;03.23.68.79.08;https://aeroclubdelaisne.com/
43.5888888888889;1.49972222222222;TOULOUSE / Lasbordes;Aéroclub Toulouse Midi Pyrénées;Aérodrome de Toulouse Lasbordes 34 av Jean-René Lagasse 31130 BALMA Aéroclub CE AIRBUS-France Toulouse - ACAT Aérodrome de Toulouse Lasbordes 18 avenue Jean-René Lagasse 31130 BALMA Les Ailes Toulousaines Aérodrome de Toulouse Lasbordes 42 avenue Jean-René Lagasse 31130 BALMA Aéroclub de l'ENAC Aérodrome de Toulouse Lasbordes 38 avenue Jean-René Lagasse 31130 BALMA Aéroclub Marcel Dassault - Louis Breguet Aérodrome de Toulouse Lasbordes 16 av J. René Lagasse 31130 BALMA Aéroclub Claude Chautemps Aérodrome de Toulouse Lasbordes 46 av J. René Lagasse 31130 BALMA Aéroclub Air France Toulouse Aérodrome de Toulouse Lasbordes 4 avenue Jean René Lagasse 31130 BALMA Air Aventures Aérodrome de Toulouse Lasbordes 34 Avenue Jean René Lagasse 31130 BALMA Assoc. des Usagers de l'Aérodrome de Toulouse-BalmaLFCL Aérodrome de Toulouse Lasbordes 38 avenue Jean-René Lagasse 31130 BALMA;05.62.47.91.60;http://www.actmp.fr
48.8230555555556;2.62388888888889;LOGNES / Emerainville;Aéroclub Aigle de St Maur;Mairie de St Maur 94100 ST MAUR Aéroclub les Aiglons Aérodrome de Lognes 77185 LOGNES Aéroclub Air France Lognes Aérodrome de Lognes 77185 LOGNES Aéroclub Henri Guillaumet Aérodrome de Lognes 77185 LOGNES PARIS.AERO Aérodrome de Lognes 77185 LOGNES Aéroclub Paris Est - les Goélands - Créteil Aérodrome de Lognes 77185 LOGNES Aéroclub Sadi Lecointe Aérodrome de Lognes 77185 LOGNES Aéroclub de la Brie Aérodrome 77185 LOGNES Plane Air Club Aérodrome de Lognes-Emerainville 77185 LOGNES Club Aéro Formation 141 bis, rue de Montmartin 77120 MOUROUX;01.60.05.37.33;http://ac.aiglons.free.fr
48.7497222222222;2.11111111111111;TOUSSUS-LE-NOBLE;DTO Fablab FFA;"155 avenue de Wagram 75017 PARIS Aéroclub Air France Aéroport de Toussus le Noble 78117 TOUSSUS LE NOBLE Aéroclub Allintair Aéroport de Toussus Le Noble Bat 310 Zone Ouest 78117 TOUSSUS LE NOBLE Aéro Touring Club de France Aéroport Paris-Saclay-Versailles Hangar 248 78117 TOUSSUS LE NOBLE Aéroclub des IPSA Aérodrome de Toussus-le-Noble Batiment 107 78117 TOUSSUS LE NOBLE Air' Europ club Aéroport de Toussus Le Noble Bat 221 78117 TOUSSUS LE NOBLE Aéroclub de l'Ouest Parisien Bat 232 Aéroport de Toussus Le Noble 78117 TOUSSUS LE NOBLE Aéroclub des métiers de l'aérien ""C. G. Jousse"" hangar 104 aérodrome de toussus le noble 78117 TOUSSUS LE NOBLE Aéroclub Français de Vitesse et de Records Cercle Aéronautique du Parlement Assemblée Nationale 126 Rue de L'Université 75355 PARIS Cedex 07 SP";01 44 29 92 00;http://www.acaf-toussus.com
48.8422222222222;1.98027777777778;CHAVENAY / Villepreux;Aéroclub Jean Bertin;Aérodrome de Chavenay Batiment 17 78450 CHAVENAY Cercle Aérien Peugeot Aérodrome de Chavenay 78450 CHAVENAY Aéroclub Gaston Caudron Aérodrome de Chavenay 78450 VILLEPREUX Aéroclub Dassault Ile-de-France Aérodrome de Chavenay Villepreux 78450 VILLEPREUX Aéroclub Renault Aérodrome de Chavenay 78450 CHAVENAY VILLEPREUX Cercle Aéron. du Ministere de l'Intérieur - CAMI Aérodrome de Chavenay 78450 VILLEPREUX Centre d'entraînement à la Voltige aérienne - CEVA Aérodrome de Chaveany 78450 VILLEPREUX Aviation et Relations Culturelles Aérodrome de Chavenay 78450 VILLEPREUX Septième Ciel 11bis avenue Victor Hugo 75116 PARIS GEPAS - Groupe d'Etude Pour l'Aviation Sportive Aérodrome de Chavenay-Villepreux 78450 CHAVENAY Aéroclub Safran Plaisir 61 rue Pierre Curie BP 1;01.34.62.30.66;http://acjb.net
48.8102777777778;2.07333333333333;SAINT-CYR-L'ÉCOLE;Aéroclub les Alcyons d'Issy les Moulineaux;Mairie 92130 ISSY LES MOULINEAUX Aéroclub André Tesson Rueil Malmaison Mairie de Rueil 92500 RUEIL MALMAISON Aéroclub de Boulogne Billancourt 19-21 rue de l'Ancienne Mairie 92100 BOULOGNE - BILLANCOURT Cercle Aéronautique du SGAC Aérodrome Bat 31 78210 SAINT CYR L'ECOLE Aéroclub de Courbevoie Gaston Samson Maison des associations 38 bis avenue de L'Alma 92400 COURBEVOIE Aéroclub Paul Tissandier Aérodrome de St Cyr L'Ecole 78210 SAINT CYR L'ECOLE Aéroclub Pierre Trebod Aérodrome 78210 SAINT CYR L'ECOLE Aéroclub de Versailles Aérodrome 78210 SAINT CYR L'ECOLE Aéroclub Banque de France 4 RUE MARSOLLIER 75002 PARIS Aéroclub U.T.A Aérodrome St Cyr L'Ecole 78210 SAINT CYR L'ECOLE Amicale de Voltige Aérienne Bat 43 Aérodrome 78210 SAINT CYR L'ECOLE;01.30.45.18.44;http://www.alcyons.com